Name,Address,Longitude,Latitude
Knox Private Hospital,"262 Mountain Highway, Wantirna",145.227497,-37.8494319
Cabrini Malvern,"181/183 Wattletree Road, Malvern",145.0333447,-37.8618122
The Alfred,"55 Commercial Road, Melbourne",144.9818979,-37.8457479
The Royal Melbourne Hospital,"300 Grattan Street, Parkville",144.955973,-37.7986657
Brunswick Private Hospital,"82 Moreland Road, Brunswick",144.9721741,-37.7564796
Era Health Doctor Melbourne CBD,"Level 9/460 Bourke Street, Melbourne",144.9600673,-37.81494429999999
Werribee Mercy Hospital,"300 Princes Highway, Werribee",144.698109,-37.8870779
Mercy Hospital For Women,"163 Studley Road, Heidelberg",145.0609354,-37.7564835
Collins Street Medical Centre - Local Melbourne City Doctors,"7/267 Collins Street, Melbourne",144.9651366,-37.8161915
Peter MacCallum Cancer Centre,"305 Grattan Street, Melbourne",144.9565082,-37.8000078
Brunswick Central Medical Centre,"1/200 Sydney Road, Brunswick",144.9613302,-37.773136
Box Hill Hospital,"8 Arnold Street, Box Hill",145.1182877,-37.8135607
Northern Hospital Epping,"185 Cooper Street, Epping",145.0145371,-37.6535152
All Medical,"1309 High Street Road, Wantirna South",145.2216841,-37.8762443
Calvary Health Care Bethlehem - Calvary Kooyong Precinct Hospital,"476 Kooyong Road, Caulfield South",145.0132125,-37.8969028
Guardian Medical Hawthorn (Glenferrie Hill Medical),"522 Glenferrie Road, Hawthorn",145.0343092,-37.8291768
Camberwell Junction Medical Clinic,"6/8 Prospect Hill Road, Camberwell",145.0582335,-37.82846190000001
Valewood Clinic,"1 Wanda Street, Mulgrave",145.1643892,-37.9197904
Westgate Health Co-Op,"2 Home Road, Newport",144.8875995,-37.8440825
"St Vincent's Private Hospital, East Melbourne","159 Grey Street, East Melbourne",144.9841212,-37.81206349999999
Ultra Health Care,"1160 Nepean Highway, Cheltenham",145.0529468,-37.95983409999999
Dandenong Hospital,"135 David Street, Dandenong",145.2192169,-37.976484
Frankston Hospital,"2 Hastings Road, Frankston",145.1294675,-38.1514184
Doncaster East Family Medical Centre,"116 Blackburn Road, Doncaster East",145.1618117,-37.7917316
Epworth Eastern,"1 Arnold Street, Box Hill",145.1195945,-37.8146135
Eastern Health Maroondah,"1/15 Davey Drive, Ringwood East",145.2544966,-37.80695169999999
High Street Medical Clinic,"139 High Street, Prahran",144.9917037,-37.8514495
Ashwood Medical Group,"448 Warrigal Road, Ashburton",145.0919598,-37.86817159999999
Weiner John Dr,"517 Saint Kilda Road, Melbourne",144.9791421,-37.8445279
Lilydale Medical Centre,"351 Main Street, Lilydale",145.355323,-37.756968
Waverley Private Hospital,"343-357 Blackburn Road, Mount Waverley",145.1456568,-37.88436220000001
Moonee Ponds Medical & Dental Centre,"34/46 Holmes Road, Moonee Ponds",144.9179246,-37.76614369999999
Narregate Medical & Dental Centre,"60 Victor Crescent, Narre Warren",145.3127235,-38.0219585
TOP MEDICAL & COSMETIC HUB - TMCH (Swanston St. Medical Centre),"level 3/255 Bourke Street, Melbourne",144.966157,-37.8135749
Brighton Family & Women's Clinic,"767 Nepean Highway, Brighton East",145.0222251,-37.919674
The Avenue Hospital,"40 The Avenue, Windsor",144.9987172,-37.8547708
Junction Place Medical Centre,"58 Harold Street, Hawthorn East",145.0560276,-37.8281243
High Street Medical & Dental Centre Preston,"530/538 High Street, Preston",145.0050787,-37.73362789999999
Frances Perry House,"Grattan St & Flemington Rd, Parkville",144.954937,-37.79893819999999
North Eastern Rehabilitation Centre,"134 Ford Street, Ivanhoe",145.0311476,-37.7634198
Epworth Freemasons,"320 Victoria Parade, East Melbourne",144.9824416,-37.8092455
Box Hill Mall Medical Centre,"8 Market Street, Box Hill",145.1221858,-37.818771
Brunswick Betta Health,"30 Sydney Road, Brunswick",144.96071,-37.77703
Mitcham Private Hospital,"27 Doncaster East Road, Mitcham",145.195047,-37.8104249
Harmony Chinese Medical Centre Pty Ltd,"3 Wellington Street, Kew",145.0295359,-37.8088076
Caulfield Hospital,"260 Kooyong Road, Caulfield",145.0161642,-37.8841585
Main Street Medical,"289 Main Street, Lilydale",145.352975,-37.7572417
SIA Essendon Medical Centre,"1136/1140 Mount Alexander Road, Essendon",144.910806,-37.744666
The Melbourne Clinic,"130 Church Street, Richmond",144.998825,-37.8146209
Qualitas Medical Practice Bentleigh East (formerly Centre Road Medical Centre),"868 Centre Road, Bentleigh East",145.0743844,-37.9234132
Melbourne Private Hospital,"1F Royal Parade, Parkville",144.9572802,-37.79830259999999
Blackburn Road Medical Centre,"278/280 Blackburn Road, Doncaster East",145.1636746,-37.7819302
313 Vets,"313 Riversdale Road, Hawthorn East",145.0481256,-37.8300619
Eastern Health Box Hill,"8 Arnold Street, Box Hill",145.1187028,-37.81393639999999
Balwyn Health Care,"4 Belmore Road, Balwyn",145.0633175,-37.80115979999999
Sheehans Medical Centre,"81 Canterbury Road, Blackburn South",145.144218,-37.8311206
Civic Parade Medical Centre,"399 Queen Street, Altona Meadows",144.778864,-37.8714898
Nunawading Clinic,"176 Springvale Road, Nunawading",145.1750207,-37.8213352
St John of God Langmore Centre,"3 Gibb Street, Berwick",145.3443999,-38.0344013
Beleura Private Hospital,"925 Nepean Highway, Mornington",145.0494023,-38.224872
Werribee Mercy Hospital,"300 Princes Highway, Werribee",144.698109,-37.8870779
The Cottage Medical Centre,"222 Torquay Road, Grovedale",144.3416541,-38.2008193
GMHBA Medical Centre South Barwon,"66 Settlement Road Service Road, Belmont",144.3446433,-38.1819506
Friendly Medical Centre,"83 Watton Street, Werribee",144.661156,-37.901672
Bannockburn Surgery,"16 High Street, Bannockburn",144.171296,-38.04571079999999
Guardian Medical Center Point Cook,"Sanctuary Lakes Shopping Centre, 33/300 Point Cook Road, Point Cook",144.7541709,-37.8952014
Dr. Natalie Harrison,"248 Malop Street, Geelong",144.3686244,-38.1497292
Barwon Health Childrens Mental Health Service,"229 Ryrie Street, Geelong",144.362786,-38.149928
Health E Allied Services,"264 Shannon Avenue, Geelong West",144.335754,-38.144997
Shannon Avenue Chiropractic,"53 Shannon Avenue, Geelong West",144.3377749,-38.1321108
Barwon Heads Medical Clinic,"99 Hitchcock Avenue, Barwon Heads",144.4921784,-38.27719219999999
Civic Parade Medical Centre,"399 Queen Street, Altona Meadows",144.778864,-37.8714898
Heart Centre St John of God,"level 6/80 Myers Street, Geelong",144.357824,-38.151583
Your Nutritional Medicine Geelong,"The Cottage Medical Centre, 222 Torquay Road, Grovedale",144.3416092,-38.200787
"Geelong Vascular Service, A/Prof David N McClure","15A The Esplanade South, Geelong",144.3546366,-38.1349342
Dr Challon Murdock,"St John of God Geelong Hospital, level 6/80 Myers Street, Geelong",144.357761,-38.15129
Dr Stephan G Foy,"St John of God Geelong Hospital, l6/80 Myers Street, Geelong",144.357745,-38.15133
Geelong Trauma Clinic,"28 Myers Street, Geelong",144.3547085,-38.1504132
ARGYLE MEDICAL,"73 Little Ryrie Street, Geelong",144.3628437,-38.1511186
Anam Cara House Geelong,"142 Myers Street, Geelong",144.3603094,-38.1519803
Qutis Skin Check Clinic,"96 Yarra Street, Geelong",144.3617567,-38.1504841
St John of God Specialist Centre,"83 Myers Street, Geelong",144.358179,-38.1509497
St John of God Granada Medical Centre,"88 Myers Street, Geelong",144.3584293,-38.1514649
Geelong Urology,"2/88 Myers Street, Geelong",144.3580246,-38.15137629999999
Geelong Endocrinology & Diabetes,"248 Malop Street, Geelong",144.3686864,-38.1497755
Geelong Laser Vein Clinic,"15A The Esplanade South, Geelong",144.3546366,-38.1349342
PRECISE PODIATRY,"66 Settlement Road Service Road, Belmont",144.3447023,-38.1819566
Banksia Medical Centre,"132 Bellarine Highway, Newcomb",144.399687,-38.173336
GP@Newcomb Medical Centre,"4/152 Bellarine Highway, Newcomb",144.4028994,-38.1742679
Barrabool Hills Medical Practice,"Shop 9/36 Province Boulevard, Highton",144.3061668,-38.1610694
Grovedale Medical Centre,"124 Burdoo Drive, Grovedale",144.3299355,-38.20801350000001
Epworth Geelong,"1 Epworth Place, Waurn Ponds",144.3025209,-38.1938681
Epworth Geelong Emergency Department,"1A Epworth Place, Waurn Ponds",144.3024894,-38.1939924
PRECISE PODIATRY,"20/641-659 Bellarine Highway, Leopold",144.4542996,-38.1860971
Forest Road Medical Centre,"Shop 3 & 4/3/5 Forest Road South, Lara",144.396831,-38.023414
GMHBA Medical Centre Lara,"1 Patullos Road, Lara",144.395147,-38.022332
PRECISE PODIATRY,"45 Walkers Road, Lara",144.4067664,-38.0211487
The Quay Family Healthcare,"T13/222 Fischer Street, Torquay",144.3296497,-38.3081813
Drysdale Bulk Billing Medical Centre,"46 Wyndham Street, Drysdale",144.5668872,-38.17229
Bellarine Medical Group,"16-22 Palmerston Street, Drysdale",144.566903,-38.174082
PRECISE PODIATRY,"15 Collins Street, Drysdale",144.5715231,-38.1720167
Golden Plains Medical Centre,"59 Geelong Road, Bannockburn",144.180137,-38.044717
Sequence Osteopathy,"92 Geelong Road, Torquay",144.3176487,-38.3289472
PRECISE PODIATRY,"Nelson Road, Point Lonsdale",144.619117,-38.272918
Point Lonsdale Medical Group,"4 Nelson Road, Point Lonsdale",144.619203,-38.273449
Maternal & Child Health Centres,"42 Vincent Crescent, Werribee",144.6555125,-37.8899309
The Doctors Werribee,"88 Cottrell Street, Werribee",144.6520256,-37.9023223
Werribee Medical & Dental Centre,"1/5 Station Place, Werribee",144.6603307,-37.9004614
MyClinic Werribee Village,"10/167-179 Shaws Road, Werribee",144.6611596,-37.8889506
Medical Centre 291,"291 Princes Highway, Werribee",144.69664,-37.8857307
Norlane Medical Centre,"49 Princes Highway, Norlane",144.3552711,-38.0942415
Westpoint Day Hospital - The Endoscopy Centre,"243 Heaths Road, Werribee",144.6797656,-37.8775521
Breathe West / Western Sleep & Breathing Clinic,"176 Heaths Road, Hoppers Crossing",144.68942,-37.8780065
Westside Consulting LLC,"168 Heaths Road, Hoppers Crossing",144.690421,-37.87802899999999
South Coast Medical - Blairgowrie,"2841 Point Nepean Road, Blairgowrie",144.7786965,-38.3612488
Westgate Medical Centre - Hoppers Crossing,"381 Sayers Road, Hoppers Crossing",144.7058113,-37.85074779999999
WellCrest Tarneit Medical Centre,"205 Bethany Road, Tarneit",144.6678958,-37.85287379999999
Myhealth Point Cook,"225/229 Sneydes Road, Point Cook",144.7288147,-37.8978129
Juniper Avenue Medical Centre,"2 Juniper Avenue, Point Cook",144.7380954,-37.88542330000001
Eastbrooke Family Clinic Belmont,"75 Roslyn Road, Belmont",144.343573,-38.175981
Eureka Medical & Dental Centre,"14 Albert Street, Ballarat Central",143.8585264,-37.5640468
Creswick Hospital & Community Health Centre,"1 Napier Street, Creswick",143.8916757,-37.4206383
Grampians Health Maternity Outpatients,"1011 Mair Street, Ballarat Central",143.8453826,-37.5585517
Ochre Medical Centre Clunes,"69 Service Street, Clunes",143.7828746,-37.3019453
St John of God Ballarat Hospital,"101 Drummond Street North, Lake Wendouree",143.847746,-37.557744
The Ballarat Group Practice,"63 Victoria Street, Bakery Hill",143.8673141,-37.5620607
Ochre Medical Centre Creswick,"58 Albert Street, Creswick",143.8952764,-37.42321389999999
Ballarat Integrated Health Centre (Higgins Chiropractic),"518 Mair Street, Ballarat Central",143.8529482,-37.5589427
UFS Dispensaries - Administration Office,"206 Armstrong Street North, Soldiers Hill",143.857543,-37.5564468
Hair Loss & Scalp Specialist - National Hair Tech Solutions,"Ballarat Business Centre, 706 Sturt Street, Ballarat Central",143.8499149,-37.56056699999999
Special Moments,"15 Dawson Street South, Ballarat Central",143.8536514,-37.5631069
PRECISE PODIATRY,"1021 Howitt Street, Wendouree",143.8377391,-37.5412585
Ballarat Health Services,"701 Norman Street, Ballarat North",143.8581848,-37.5370712
Ochre Medical Centre Alfredton,"19 Leopold Street, Alfredton",143.8147467,-37.5587752
Ballarat Base Hospital (Grampians Health),"1 Drummond Street North, Ballarat Central",143.8472356,-37.558752
Springs Medical,"22 Victoria Street, Trentham",144.327713,-37.3863716
The Ballarat Group Practice,"1021 Howitt Street, Wendouree",143.8377286,-37.541494
Melbourne Traditional Chinese Medical Centre Pty Ltd,"507 Dana Street, Ballarat Central",143.8521611,-37.5637785
Gandarra Palliative Care Unit,"102 Ascot Street South, Ballarat Central",143.8434708,-37.5637489
Queen Elizabeth Centre,"102 Ascot Street South, Ballarat Central",143.8433397,-37.5641316
Sebastopol UFS Medical,"1/37 Albert Street, Sebastopol",143.8412804,-37.585337
Doveton Street UFS Medical,"1/202 Doveton Street North, Ballarat Central",143.8560413,-37.5567671
Ballarat Day Procedure Centre,"1119/1123 Howitt Street, Wendouree",143.8322296,-37.54092449999999
Ballarat Psychiatry Group,"5 Drummond Street South, Ballarat Central",143.847588,-37.5616937
Windermere St UFS Medical,"4 Windermere Street, Ballarat Central",143.8455752,-37.561529
Ballarat Priority Primary Care Centre (PPCC),"4 Windermere St (Ground floor, Ballarat Central",143.8455967,-37.5612824
Grampians Consulting Suites,"210 Drummond Street South, Ballarat Central",143.8462239,-37.5658166
Raglan Street Clinic,"23/25 Raglan Street North, Ballarat Central",143.8504994,-37.5591574
Glen Lyon Health & Lifestyle Consultants,"604 Mair Street, Ballarat Central",143.8519236,-37.5587661
"GEM Unit, Ballarat Health Services","102 Ascot Street South, Ballarat Central",143.8435004,-37.5633984
Peter Heinz Centre,"102 Ascot Street South, Ballarat Central",143.8435098,-37.56384389999999
Wendy Rumble Massage,"518 Mair Street, Ballarat Central",143.852979,-37.5589363
"In-Patient Rehabilitation Ward, Ballarat Health Services",Ballarat Central,143.84247,-37.5641815
"Engineering, Ballarat Health Services",Ballarat Central,143.8417463,-37.56352
Rural Allergy Group,"107 Skipton Street, Ballarat Central",143.852864,-37.5690676
William Booth Memorial Citadel,Ballarat Central,143.8592281,-37.5631578
Dr. Jack Green,"306 Drummond Street North, Ballarat Central",143.8489723,-37.55399749999999
William's Table,"49 Mair Street East, Ballarat Central",143.8640303,-37.5602191
PRECISE PODIATRY,"63 Victoria Street, Bakery Hill",143.867249,-37.562037
Dr. Robert Vrij,"63 Victoria Street, Bakery Hill",143.8673141,-37.5620607
Fox Therapies,"603 Doveton Street North, Soldiers Hill",143.857054,-37.54809439999999
Marleys,"Unit 3/716 Darling Street, Redan",143.8339685,-37.5736825
Golden Point Medical Centre,"Shop 4/402 Main Road, Golden Point",143.870409,-37.5718777
Ballarat Surgicentre,"5-9 Wood Street, Soldiers Hill",143.8517875,-37.5428801
Arch Medical Centre,"1607A Sturt Street, Alfredton",143.8178745,-37.555665
Midlands House,"701 Norman Street, Ballarat North",143.8577906,-37.5362983
Mission Healthcare - Medical Centre,"1211A Howitt Street, Wendouree",143.8296348,-37.5403365
Lotus Family Clinic,"10 Smythes Road, Delacombe",143.823887,-37.587101
Ballarat Community Health Cooinda,"10 Learmonth Road, Wendouree",143.8211649,-37.5369775
Sebastopol Medical Centre,"194 Albert Street, Sebastopol",143.8408142,-37.5980481
JSN Medical,"501A Wiltshire Lane, Delacombe",143.8080879,-37.5848347
Ballarat Doctors Medical Centre,"T3 & T5, 21/53 Learmonth Road, Wendouree",143.8149441,-37.5338398
Wendouree Medical Centre,"450-452 Gillies Street North, Wendouree",143.824753,-37.528063
St John of God Group Services,"33 Grandlee Drive, Wendouree",143.8112585,-37.5350711
Carn-Brae Clinic,"Winter Valley, 328 Glenelg Highway, Delacombe",143.8052673,-37.5900009
Delacombe Medical Centre,"1/315 Glenelg Highway, Smythes Creek",143.8044842,-37.5930089
Q1 Medical - Lucas,"1b Coltman Plaza, Lucas",143.7860162,-37.5438699
Creswick & Clunes Medical Centre,"58 Albert Street, Creswick",143.8952764,-37.42321389999999
Gordon General Practice,"56 Urquhart Street, Gordon",144.1041812,-37.5815618
Tom Mason Sheep Scanning Services,"120 Settlement Road, Waubra",143.6425092,-37.3651971
Bendigo Medical - Epsom Clinic,"27 Howard Street, Epsom",144.3184203,-36.7056142
Bendigo Health,"100 Barnard Street, Bendigo",144.280769,-36.749617
Bendigo Day Surgery,"1 Chum Street, Bendigo",144.2615725,-36.7619607
Dr Hany Georgeos,"Somerville Street clinic, 28a Somerville Street, Flora Hill",144.2902634,-36.7718702
Kangaroo Flat Medical Centre,"68-72 High Street, Kangaroo Flat",144.2439101,-36.7923852
Bendigo Medical Centre,"226 High Street, Kangaroo Flat",144.2416444,-36.8036435
Maternal & Child Health Centres,"15 Lyttleton Street, Castlemaine",144.2162662,-37.0640945
Maldon Hospital,"1 Chapel Street, Maldon",144.0638653,-36.9924824
Castlemaine Health,"142 Cornish Street, Castlemaine",144.2116766,-37.0542662
Inglewood & Districts Health Service,"3 Hospital Street, Inglewood",143.8739346,-36.5721911
Bendigo Medical Centre,"63-65 Bridge Street, Bendigo",144.2838657,-36.7517023
St John of God Bendigo Hospital,"133-145 Lily Street, Bendigo",144.2632878,-36.7621268
Anne Caudle Centre,"100 Barnard Street, Bendigo",144.2798359,-36.75126789999999
Botanical Gardens Health,"137 Cornish Street, Castlemaine",144.2121109,-37.05473569999999
Maryborough District Health Service Dunolly,"20 Havelock Street, Dunolly",143.7354779,-36.85530250000001
Strathfieldsaye Primary Health,"34 Blucher Street, Strathfieldsaye",144.3587452,-36.805887
Bendigo Community Health Service,"75 Mitchell Street, Bendigo",144.280973,-36.76155019999999
Sonic,"84 Mollison Street, Bendigo",144.2855057,-36.7608624
Sandhurst Medical Practice,"Level 1/84 Mollison Street, Bendigo",144.2855694,-36.76089510000001
View Street Consulting Rooms (Mr Dan Fletcher General Surgeon),"203 View Street, Bendigo",144.2742571,-36.7558066
Bendigo Doctors,"Bendigo Marketplace, G072 – G073, 116/120 Mitchell Street, Bendigo",144.2812643,-36.7646852
Bendigo Respiratory,"210 Barnard Street, Bendigo",144.273345,-36.7553327
Regional Vascular Services Bendigo,"465 Hargreaves Street, Bendigo",144.2748821,-36.7643771
Victorian Osteoporosis Centre,"20 Drought Street, Bendigo",144.2797137,-36.7489496
Lucan St. Medical,"89 Lucan Street, Bendigo",144.2846679,-36.7495422
Active Podiatry,"18 Eaglehawk Road, Ironbark",144.2681823,-36.75606179999999
Bendigo Health - Lucan Street Campus,"100 Lucan Street, Bendigo",144.2818199,-36.7487512
Breen St Medical Practice,"64 Breen Street, Quarry Hill",144.2755647,-36.76888189999999
Breen Street Medical Practice - Bendigo GP,"64 Breen Street, Quarry Hill",144.275551,-36.768971
Bendigo Health Havlin Street,Kennington,144.2907655,-36.7663304
Dr Simon Thompson,"43 Eaglehawk Road, Ironbark",144.2647355,-36.756043
Somerville Street Clinic,"28A Somerville Street, Flora Hill",144.2902994,-36.77191149999999
Lowndes Street Clinic,"9 Lowndes Street, Kennington",144.2980085,-36.7647664
Bendigo GP and Specialist Suites,"282 High Street, Golden Square",144.2624469,-36.77033719999999
Flora Hill Medical Practice,"153 Neale Street, Kennington",144.2931006,-36.7748483
Flora Hill Medical Centre - Family friendly GP practice,"153 Neale Street, Flora Hill",144.2931183,-36.77487540000001
GP Care Eaglehawk,"Shop 2/162-170 Eaglehawk Road, Long Gully",144.258333,-36.7458212
HealthFix Medical Centre,"120 Condon Street, Kennington",144.303535,-36.7730205
Strath Village Medical Centre,"Shop 10/134 Condon Street, Kennington",144.3050494,-36.77445629999999
White Hills Medical Practice,"496 Napier Street, White Hills",144.3060521,-36.7303485
great falls vet,"Bright Street, California Gully",144.2675198,-36.7234953
Eaglehawk Medical Group,"87 Victoria Street, Eaglehawk",144.2535964,-36.7189782
Stewart Cowen Rehabilitation Centre,"1 Market Street, Eaglehawk",144.250547,-36.7188169
Eaglehawk Medical Centre,"13/21 Peg Leg Road, Eaglehawk",144.251063,-36.7178075
Dynamic Health & Sports Osteo,"18 Sailors Gully Road, Eaglehawk",144.2511609,-36.7164545
"ACE Children's Health, Dr.Gaurav KULKARNI","955 Wellington Street, Strathfieldsaye",144.3592275,-36.80623499999999
Dhelkaya Health - Maldon Campus,"Maldon Hospital, 1 Chapel Street, Maldon",144.0639834,-36.992541
Dhelkaya Health - Castlemaine Campus,"Castlemaine Health, 142 Cornish Street, Castlemaine",144.2124914,-37.0538598
Doctor at Castlemaine,"29 Lyttleton Street, Castlemaine",144.2191755,-37.0644322
MTB Trail Head,Chewton,144.2387136,-37.0802899
Mcivor Medical Centre,"150 High Street, Heathcote",144.7082714,-36.9209027
Heathcote Health,"39 Hospital Street, Heathcote",144.709277,-36.9258855
Victoria Public Hospitals,"39-55 Hospital Street, Heathcote",144.7094241,-36.9259429
Frankston Hospital,"2 Hastings Road, Frankston",145.1294675,-38.1514184
Beleura Private Hospital,"925 Nepean Highway, Mornington",145.0494023,-38.224872
The Bays Hospital,"262 Main Street, Mornington",145.0418443,-38.2238136
Dandenong Hospital,"135 David Street, Dandenong",145.2192169,-37.976484
Narregate Medical & Dental Centre,"60 Victor Crescent, Narre Warren",145.3127235,-38.0219585
Mornington Family Doctors,"960 Nepean Highway, Mornington",145.0441301,-38.2310321
Ultra Health Care,"1160 Nepean Highway, Cheltenham",145.0529468,-37.95983409999999
Doctors at Casey Medical Centre,"G/50-52 Kangan Drive, Berwick",145.3461395,-38.0422524
St John of God Langmore Centre,"3 Gibb Street, Berwick",145.3443999,-38.0344013
Cowes Medical Centre,"164 Thompson Avenue, Cowes",145.238397,-38.456861
The Pound Road Medical Centre,"370-372 Pound Road, Narre Warren South",145.2893071,-38.03820030000001
Valewood Clinic,"1 Wanda Street, Mulgrave",145.1643892,-37.9197904
Medical Centre Frankston,"54/56 Cranbourne Road, Frankston",145.133392,-38.14599400000001
Advantage Medical & Dental - Rosebud,"1541 Point Nepean Road, Capel Sound",144.883328,-38.362025
Whole Medicine General Practice,"113 Boneo Road, Rosebud",144.889749,-38.3715822
Qualitas Medical Practice Bentleigh East (formerly Centre Road Medical Centre),"868 Centre Road, Bentleigh East",145.0743844,-37.9234132
Brighton Family & Women's Clinic,"767 Nepean Highway, Brighton East",145.0222251,-37.919674
Aghapy Medical Centre,"2/2 Waterford Rise, Pakenham",145.453161,-38.06433699999999
Atticus Health Medical Clinic Carrum,"505A Station Street, Carrum",145.123144,-38.07554
South Coast Medical - Blairgowrie,"2841 Point Nepean Road, Blairgowrie",144.7786965,-38.3612488
Advantage Medical & Dental - Tooradin,"110 South Gippsland Highway, Tooradin",145.3823107,-38.2143937
San Remo Medical Clinic,"123 Marine Parade, San Remo",145.369561,-38.521119
Dental Computing Services,"433 Nepean Highway, Frankston South",145.122068,-38.14226
Botany Park Maternal & Child Health Centre,"53R Lyrebird Drive, Carrum Downs",145.1746289,-38.1110579
Hospital Developments International PTY Ltd.,"17 Maberley Crescent, Frankston South",145.1321993,-38.1828879
Southern Eye Centre & Day Surgery,"44 Cranbourne Road, Frankston",145.1320811,-38.1458714
ACTIVE ONE Health Professional Group,"25 Yuille Street, Frankston",145.1251467,-38.1534677
Frankston Pain Management,"Suite 7/20 Clarendon Street, Frankston",145.131247,-38.150238
Chelsea Heights Medical Centre,"205 Thames Promenade, Chelsea Heights",145.1366736,-38.0448483
Revita Medical and Skin Clinic,"4a/1297 Nepean Highway, Cheltenham",145.0581007,-37.9652671
Atticus Health Medical Clinic Bittern,"Bittern Fields Shopping Centre, 6/2432 Frankston - Flinders Road, Bittern",145.1773235,-38.3362764
Atticus Health Medical Clinic Hastings,"2104/2106 Frankston - Flinders Road, Hastings",145.1831854,-38.3091984
Hastings Family Medical Centre,"9 Queen Street, Hastings",145.1889151,-38.3086569
Atticus Health Medical Clinic Somerville,"Somerville Central Shop MM2, 49 Eramosa Road West, Somerville",145.1698421,-38.2243826
Peninsula Foot Clinic,"4/67 Eramosa Road West, Somerville",145.1679278,-38.2232897
South Coast Medical - Dromana,"1/251 Point Nepean Road, Dromana",144.964193,-38.33392679999999
Mornington Coastal Medical Centre,"958 Nepean Highway, Mornington",145.0437767,-38.2313422
True Aesthetics @ Mornington,"925 Nepean Highway, Mornington",145.0494584,-38.2252233
Elite Medical Centre,"319 Main Street, Mornington",145.0426966,-38.2266674
Pearcedale Medical Centre,"58 Baxter-Tooradin Road, Pearcedale",145.2329631,-38.2029757
Complete Skin Cancer Clinics Rosebud,"1079 Point Nepean Road, Rosebud",144.9036284,-38.3562993
Rosebud Medical Clinic,"12-16 Boneo Road, Rosebud",144.8892611,-38.3614327
True Aesthetics @ Frankston,"Public Surgical Centre, 5 Susono Way, Frankston",145.1329886,-38.1544114
Frankston Public Surgical Centre - Peninsula Health,"5 Susono Way, Frankston",145.1331268,-38.1543972
Peninsula Private Hospital,"525 McClelland Drive, Langwarrin",145.1694092,-38.15771429999999
Centurion Healthcare,"Peninsula Private Hospital Specialist, Suite 7/525 McClelland Drive, Frankston",145.1695779,-38.1574961
Electromedicine Clinic,"Suite 4/20 Clarendon Street, Frankston",145.1312729,-38.1502162
Artystone Medical,"13 Hastings Road, Frankston",145.1304856,-38.1498796
Core Podiatry Group,"81 Cranbourne-Frankston Road, Langwarrin",145.1802062,-38.1548881
Associate Professor Amar Trivedi,"164 Cranbourne Road, Frankston",145.147788,-38.1488118
Epichealth Medical Clinic Langwarrin,"Shop 24/230 Cranbourne-Frankston Road, Langwarrin",145.1962193,-38.1508508
Myhealth Bayside,"Bayside Shopping Centre, Shop MM11/28 Beach Street, Frankston",145.1244901,-38.1406397
TLC Medical Centres - Frankston North,"23 Forest Drive, Frankston North",145.1463037,-38.1233718
Berwick Healthcare,"76 Clyde Road, Berwick",145.3417809,-38.0396446
Carrum Downs Doctors,"5/335 Ballarto Road, Carrum Downs",145.193675,-38.116635
C D Medical Centre,"335 Ballarto Road, Carrum Downs",145.193668,-38.116597
McCormicks Road General Practice,"25 McCormicks Road, Carrum Downs",145.194173,-38.1147257
Rye Family Clinic,"Shop 5/2217 Point Nepean Road, Rye",144.8284754,-38.37129079999999
Stetho Health Cranbourne Medical & Dental Centre,"1 Ferndown Drive, Cranbourne",145.250228,-38.1224228
Monash Health - Cranbourne Integrated Care Centre,"140-154 Sladen Street, Cranbourne",145.2816139,-38.1130723
Knox Private Hospital,"262 Mountain Highway, Wantirna",145.227497,-37.8494319
Cabrini Malvern,"181/183 Wattletree Road, Malvern",145.0333447,-37.8618122
The Alfred,"55 Commercial Road, Melbourne",144.9818979,-37.8457479
The Royal Melbourne Hospital,"300 Grattan Street, Parkville",144.955973,-37.7986657
Brunswick Private Hospital,"82 Moreland Road, Brunswick",144.9721741,-37.7564796
Era Health Doctor Melbourne CBD,"Level 9/460 Bourke Street, Melbourne",144.9600673,-37.81494429999999
Werribee Mercy Hospital,"300 Princes Highway, Werribee",144.698109,-37.8870779
Mercy Hospital For Women,"163 Studley Road, Heidelberg",145.0609354,-37.7564835
Collins Street Medical Centre - Local Melbourne City Doctors,"7/267 Collins Street, Melbourne",144.9651366,-37.8161915
Peter MacCallum Cancer Centre,"305 Grattan Street, Melbourne",144.9565082,-37.8000078
Brunswick Central Medical Centre,"1/200 Sydney Road, Brunswick",144.9613302,-37.773136
Box Hill Hospital,"8 Arnold Street, Box Hill",145.1182877,-37.8135607
Northern Hospital Epping,"185 Cooper Street, Epping",145.0145371,-37.6535152
All Medical,"1309 High Street Road, Wantirna South",145.2216841,-37.8762443
Guardian Medical Hawthorn (Glenferrie Hill Medical),"522 Glenferrie Road, Hawthorn",145.0343092,-37.8291768
Calvary Health Care Bethlehem - Calvary Kooyong Precinct Hospital,"476 Kooyong Road, Caulfield South",145.0132125,-37.8969028
Camberwell Junction Medical Clinic,"6/8 Prospect Hill Road, Camberwell",145.0582335,-37.82846190000001
Valewood Clinic,"1 Wanda Street, Mulgrave",145.1643892,-37.9197904
Westgate Health Co-Op,"2 Home Road, Newport",144.8875995,-37.8440825
"St Vincent's Private Hospital, East Melbourne","159 Grey Street, East Melbourne",144.9841212,-37.81206349999999
Ultra Health Care,"1160 Nepean Highway, Cheltenham",145.0529468,-37.95983409999999
Doncaster East Family Medical Centre,"116 Blackburn Road, Doncaster East",145.1618117,-37.7917316
Epworth Eastern,"1 Arnold Street, Box Hill",145.1195945,-37.8146135
Eastern Health Maroondah,"1/15 Davey Drive, Ringwood East",145.2544966,-37.80695169999999
Dandenong Hospital,"135 David Street, Dandenong",145.2192169,-37.976484
High Street Medical Clinic,"139 High Street, Prahran",144.9917037,-37.8514495
Ashwood Medical Group,"448 Warrigal Road, Ashburton",145.0919598,-37.86817159999999
Lilydale Medical Centre,"351 Main Street, Lilydale",145.355323,-37.756968
Weiner John Dr,"517 Saint Kilda Road, Melbourne",144.9791421,-37.8445279
Waverley Private Hospital,"343-357 Blackburn Road, Mount Waverley",145.1456568,-37.88436220000001
Moonee Ponds Medical & Dental Centre,"34/46 Holmes Road, Moonee Ponds",144.9179246,-37.76614369999999
TOP MEDICAL & COSMETIC HUB - TMCH (Swanston St. Medical Centre),"level 3/255 Bourke Street, Melbourne",144.966157,-37.8135749
Brighton Family & Women's Clinic,"767 Nepean Highway, Brighton East",145.0222251,-37.919674
The Avenue Hospital,"40 The Avenue, Windsor",144.9987172,-37.8547708
Junction Place Medical Centre,"58 Harold Street, Hawthorn East",145.0560276,-37.8281243
High Street Medical & Dental Centre Preston,"530/538 High Street, Preston",145.0050787,-37.73362789999999
Frances Perry House,"Grattan St & Flemington Rd, Parkville",144.954937,-37.79893819999999
North Eastern Rehabilitation Centre,"134 Ford Street, Ivanhoe",145.0311476,-37.7634198
Epworth Freemasons,"320 Victoria Parade, East Melbourne",144.9824416,-37.8092455
Main Street Medical,"289 Main Street, Lilydale",145.352975,-37.7572417
Box Hill Mall Medical Centre,"8 Market Street, Box Hill",145.1221858,-37.818771
Brunswick Betta Health,"30 Sydney Road, Brunswick",144.96071,-37.77703
Mitcham Private Hospital,"27 Doncaster East Road, Mitcham",145.195047,-37.8104249
Harmony Chinese Medical Centre Pty Ltd,"3 Wellington Street, Kew",145.0295359,-37.8088076
Caulfield Hospital,"260 Kooyong Road, Caulfield",145.0161642,-37.8841585
SIA Essendon Medical Centre,"1136/1140 Mount Alexander Road, Essendon",144.910806,-37.744666
The Melbourne Clinic,"130 Church Street, Richmond",144.998825,-37.8146209
Melbourne Private Hospital,"1F Royal Parade, Parkville",144.9572802,-37.79830259999999
Blackburn Road Medical Centre,"278/280 Blackburn Road, Doncaster East",145.1636746,-37.7819302
Qualitas Medical Practice Bentleigh East (formerly Centre Road Medical Centre),"868 Centre Road, Bentleigh East",145.0743844,-37.9234132
313 Vets,"313 Riversdale Road, Hawthorn East",145.0481256,-37.8300619
Eastern Health Box Hill,"8 Arnold Street, Box Hill",145.1187028,-37.81393639999999
Balwyn Health Care,"4 Belmore Road, Balwyn",145.0633175,-37.80115979999999
Sheehans Medical Centre,"81 Canterbury Road, Blackburn South",145.144218,-37.8311206
Nunawading Clinic,"176 Springvale Road, Nunawading",145.1750207,-37.8213352
Civic Parade Medical Centre,"399 Queen Street, Altona Meadows",144.778864,-37.8714898
Epworth Richmond,"89 Bridge Road, Richmond",144.9930606,-37.8172016
Northcote Medical Group,"147 Westbourne Grove, Northcote",144.996744,-37.77394700000001
Narregate Medical & Dental Centre,"60 Victor Crescent, Narre Warren",145.3127235,-38.0219585
MSI Richmond (East Melbourne) Abortion & Contraception Clinic,"Ground Floor East/678 Victoria Street, Richmond",145.0139982,-37.8121236
Knox Private Hospital,"262 Mountain Highway, Wantirna",145.227497,-37.8494319
Cabrini Malvern,"181/183 Wattletree Road, Malvern",145.0333447,-37.8618122
The Alfred,"55 Commercial Road, Melbourne",144.9818979,-37.8457479
The Royal Melbourne Hospital,"300 Grattan Street, Parkville",144.955973,-37.7986657
Brunswick Private Hospital,"82 Moreland Road, Brunswick",144.9721741,-37.7564796
Era Health Doctor Melbourne CBD,"Level 9/460 Bourke Street, Melbourne",144.9600673,-37.81494429999999
Werribee Mercy Hospital,"300 Princes Highway, Werribee",144.698109,-37.8870779
Mercy Hospital For Women,"163 Studley Road, Heidelberg",145.0609354,-37.7564835
Collins Street Medical Centre - Local Melbourne City Doctors,"7/267 Collins Street, Melbourne",144.9651366,-37.8161915
Peter MacCallum Cancer Centre,"305 Grattan Street, Melbourne",144.9565082,-37.8000078
Brunswick Central Medical Centre,"1/200 Sydney Road, Brunswick",144.9613302,-37.773136
Box Hill Hospital,"8 Arnold Street, Box Hill",145.1182877,-37.8135607
Northern Hospital Epping,"185 Cooper Street, Epping",145.0145371,-37.6535152
All Medical,"1309 High Street Road, Wantirna South",145.2216841,-37.8762443
Calvary Health Care Bethlehem - Calvary Kooyong Precinct Hospital,"476 Kooyong Road, Caulfield South",145.0132125,-37.8969028
Guardian Medical Hawthorn (Glenferrie Hill Medical),"522 Glenferrie Road, Hawthorn",145.0343092,-37.8291768
Camberwell Junction Medical Clinic,"6/8 Prospect Hill Road, Camberwell",145.0582335,-37.82846190000001
Valewood Clinic,"1 Wanda Street, Mulgrave",145.1643892,-37.9197904
Westgate Health Co-Op,"2 Home Road, Newport",144.8875995,-37.8440825
"St Vincent's Private Hospital, East Melbourne","159 Grey Street, East Melbourne",144.9841212,-37.81206349999999
Frankston Hospital,"2 Hastings Road, Frankston",145.1294675,-38.1514184
Ultra Health Care,"1160 Nepean Highway, Cheltenham",145.0529468,-37.95983409999999
Dandenong Hospital,"135 David Street, Dandenong",145.2192169,-37.976484
Doncaster East Family Medical Centre,"116 Blackburn Road, Doncaster East",145.1618117,-37.7917316
Epworth Eastern,"1 Arnold Street, Box Hill",145.1195945,-37.8146135
Eastern Health Maroondah,"1/15 Davey Drive, Ringwood East",145.2544966,-37.80695169999999
High Street Medical Clinic,"139 High Street, Prahran",144.9917037,-37.8514495
Ashwood Medical Group,"448 Warrigal Road, Ashburton",145.0919598,-37.86817159999999
Weiner John Dr,"517 Saint Kilda Road, Melbourne",144.9791421,-37.8445279
Lilydale Medical Centre,"351 Main Street, Lilydale",145.355323,-37.756968
Waverley Private Hospital,"343-357 Blackburn Road, Mount Waverley",145.1456568,-37.88436220000001
Narregate Medical & Dental Centre,"60 Victor Crescent, Narre Warren",145.3127235,-38.0219585
Moonee Ponds Medical & Dental Centre,"34/46 Holmes Road, Moonee Ponds",144.9179246,-37.76614369999999
TOP MEDICAL & COSMETIC HUB - TMCH (Swanston St. Medical Centre),"level 3/255 Bourke Street, Melbourne",144.966157,-37.8135749
Brighton Family & Women's Clinic,"767 Nepean Highway, Brighton East",145.0222251,-37.919674
The Avenue Hospital,"40 The Avenue, Windsor",144.9987172,-37.8547708
Junction Place Medical Centre,"58 Harold Street, Hawthorn East",145.0560276,-37.8281243
High Street Medical & Dental Centre Preston,"530/538 High Street, Preston",145.0050787,-37.73362789999999
Beleura Private Hospital,"925 Nepean Highway, Mornington",145.0494023,-38.224872
Frances Perry House,"Grattan St & Flemington Rd, Parkville",144.954937,-37.79893819999999
North Eastern Rehabilitation Centre,"134 Ford Street, Ivanhoe",145.0311476,-37.7634198
Epworth Freemasons,"320 Victoria Parade, East Melbourne",144.9824416,-37.8092455
Box Hill Mall Medical Centre,"8 Market Street, Box Hill",145.1221858,-37.818771
Brunswick Betta Health,"30 Sydney Road, Brunswick",144.96071,-37.77703
Mitcham Private Hospital,"27 Doncaster East Road, Mitcham",145.195047,-37.8104249
Harmony Chinese Medical Centre Pty Ltd,"3 Wellington Street, Kew",145.0295359,-37.8088076
Caulfield Hospital,"260 Kooyong Road, Caulfield",145.0161642,-37.8841585
SIA Essendon Medical Centre,"1136/1140 Mount Alexander Road, Essendon",144.910806,-37.744666
The Melbourne Clinic,"130 Church Street, Richmond",144.998825,-37.8146209
Main Street Medical,"289 Main Street, Lilydale",145.352975,-37.7572417
Qualitas Medical Practice Bentleigh East (formerly Centre Road Medical Centre),"868 Centre Road, Bentleigh East",145.0743844,-37.9234132
Melbourne Private Hospital,"1F Royal Parade, Parkville",144.9572802,-37.79830259999999
Blackburn Road Medical Centre,"278/280 Blackburn Road, Doncaster East",145.1636746,-37.7819302
313 Vets,"313 Riversdale Road, Hawthorn East",145.0481256,-37.8300619
Eastern Health Box Hill,"8 Arnold Street, Box Hill",145.1187028,-37.81393639999999
Balwyn Health Care,"4 Belmore Road, Balwyn",145.0633175,-37.80115979999999
Sheehans Medical Centre,"81 Canterbury Road, Blackburn South",145.144218,-37.8311206
Civic Parade Medical Centre,"399 Queen Street, Altona Meadows",144.778864,-37.8714898
Nunawading Clinic,"176 Springvale Road, Nunawading",145.1750207,-37.8213352
St John of God Langmore Centre,"3 Gibb Street, Berwick",145.3443999,-38.0344013
Eureka Medical & Dental Centre,"14 Albert Street, Ballarat Central",143.8585264,-37.5640468
Brooke Street Medical Centre,"14 Brooke Street, Woodend",144.5293247,-37.35963640000001
Dr Woodrow Wu,"Suite 1/160 Main Street, Bacchus Marsh",144.4389035,-37.6755218
Lake Imaging - Bacchus Marsh Hospital,"29-35 Grant Street (Via, Turner Street, Bacchus Marsh",144.4333869,-37.6776476
Springs Medical,"22 Victoria Street, Trentham",144.327713,-37.3863716
Bacchus Marsh Hospital,"29-35 Grant Street, Bacchus Marsh",144.434492,-37.67800099999999
Grant Street Medical Centre,"54 Grant Street, Bacchus Marsh",144.4349726,-37.6801313
Bright FACES Pty Ltd,"3/21 Reserve Road, Melton",144.5948812,-37.6858756
Ranges Medical,"182 Station Road, New Gisborne",144.5954609,-37.4677682
Creswick Hospital & Community Health Centre,"1 Napier Street, Creswick",143.8916757,-37.4206383
The Ballarat Group Practice,"63 Victoria Street, Bakery Hill",143.8673141,-37.5620607
Ochre Medical Centre Creswick,"58 Albert Street, Creswick",143.8952764,-37.42321389999999
Grampians Health Maternity Outpatients,"1011 Mair Street, Ballarat Central",143.8453826,-37.5585517
St John of God Ballarat Hospital,"101 Drummond Street North, Lake Wendouree",143.847746,-37.557744
UFS Dispensaries - Administration Office,"206 Armstrong Street North, Soldiers Hill",143.857543,-37.5564468
Ballarat Integrated Health Centre (Higgins Chiropractic),"518 Mair Street, Ballarat Central",143.8529482,-37.5589427
Ballarat Health Services,"701 Norman Street, Ballarat North",143.8581848,-37.5370712
Special Moments,"15 Dawson Street South, Ballarat Central",143.8536514,-37.5631069
Hair Loss & Scalp Specialist - National Hair Tech Solutions,"Ballarat Business Centre, 706 Sturt Street, Ballarat Central",143.8499149,-37.56056699999999
Goonawarra Health Services,"1-11 Dornoch Drive, Sunbury",144.7496681,-37.579743
PRECISE PODIATRY,"1021 Howitt Street, Wendouree",143.8377391,-37.5412585
Ochre Medical Centre Alfredton,"19 Leopold Street, Alfredton",143.8147467,-37.5587752
Taylors Hill Medical Clinic,"Shop 1/127 Gourlay Road, Taylors Hill",144.7422704,-37.7109391
Westcare Family Medical Centre,"1/211 Barries Road, Melton West",144.5585037,-37.6860557
Lifeline Healthcare Group Romsey,"28 Main Street, Romsey",144.7442452,-37.3562222
Parkwood Green medical centre Romsey,"117 Main Street, Romsey",144.742025,-37.34746399999999
Watergardens Medical Centre,"with Terry white pharmacy, Shop T101/399 Melton Highway, Taylors Lakes",144.778273,-37.6989141
Ballarat Base Hospital (Grampians Health),"1 Drummond Street North, Ballarat Central",143.8472356,-37.558752
Modern Medical Caroline Springs,"Suite C3A/1042 Western Highway, Caroline Springs",144.7482285,-37.7581058
WellCrest Tarneit Medical Centre,"205 Bethany Road, Tarneit",144.6678958,-37.85287379999999
MedicalOne - Dr Steven Zebic,"1 Melton Highway, Taylors Lakes",144.8008243,-37.7020407
Westgate Medical Centre - Hoppers Crossing,"381 Sayers Road, Hoppers Crossing",144.7058113,-37.85074779999999
HealthWest Medical & Specialist Centre,"549 Morris Road, Truganina",144.7084503,-37.8366203
One West Family Clinic,"1 Furlong Road, Cairnlea",144.7772673,-37.75978899999999
Melton Medical & Dental Centre,"247/251 Station Road, Melton",144.5778294,-37.6848058
Deer Park Doctors Clinic,"811B Ballarat Road, Deer Park",144.7734748,-37.7704284
Ochre Medical Centre Lancefield,"17 High Street, Lancefield",144.7341079,-37.27749670000001
Melton Health Hub,"195-209 Barries Road, Melton West",144.5579637,-37.6869039
Djerriwarrh Health Services,"29-35 Grant Street, Bacchus Marsh",144.434449,-37.67800099999999
Western Skin Institute,"378 Main Road West, Saint Albans",144.7949204,-37.7433607
Plaza Medical Centre,"21/80 Taylors Road, Keilor Downs",144.8068777,-37.7269422
Maternal & Child Health Centres,"42 Vincent Crescent, Werribee",144.6555125,-37.8899309
Keilor Downs MCH Centre,"12A Antwerp Drive, Keilor Downs",144.810712,-37.721946
Melbourne Traditional Chinese Medical Centre Pty Ltd,"507 Dana Street, Ballarat Central",143.8521611,-37.5637785
Station Medical Centre,"Unit 19/1-3 Princess Street, Saint Albans",144.8007377,-37.7450423
The Ballarat Group Practice,"1021 Howitt Street, Wendouree",143.8377286,-37.541494
MyClinic Werribee Village,"10/167-179 Shaws Road, Werribee",144.6611596,-37.8889506
Gandarra Palliative Care Unit,"102 Ascot Street South, Ballarat Central",143.8434708,-37.5637489
Westpoint Day Hospital - The Endoscopy Centre,"243 Heaths Road, Werribee",144.6797656,-37.8775521
Medical Centre St Albans,"258 Main Road East, Saint Albans",144.8057474,-37.7447111
Kyneton Health,"7-25 Caroline Chisholm Drive, Kyneton",144.4703049,-37.2547934
The Elms Family Medical Centre,"Suite 1/160 Main Street, Bacchus Marsh",144.4388656,-37.6756221
Gap Road Medical Centre,"46 Gap Road, Sunbury",144.7230247,-37.5794426
Bacchus Marsh Medical Centre,"Turner Street, Bacchus Marsh",144.434605,-37.677256
The Doctors Werribee,"88 Cottrell Street, Werribee",144.6520256,-37.9023223
St Mary's Medical Clinic,"270-272 Main Road East, Saint Albans",144.804348,-37.7445702
Vineyard Medical Centre,"2-6 Sussex Court, Sunbury",144.7189281,-37.5869248
Manor Lakes Medical Centre,"Shop 5/8 Manor Lakes Boulevard, Wyndham Vale",144.6140171,-37.8763629
Queen Elizabeth Centre,"102 Ascot Street South, Ballarat Central",143.8433397,-37.5641316
Goonawarra Medical Centre Sunbury,"1 to 5 Dornoch Drive, Sunbury",144.7500031,-37.5797537
Frankston Hospital,"2 Hastings Road, Frankston",145.1294675,-38.1514184
Beleura Private Hospital,"925 Nepean Highway, Mornington",145.0494023,-38.224872
The Bays Hospital,"262 Main Street, Mornington",145.0418443,-38.2238136
Mornington Family Doctors,"960 Nepean Highway, Mornington",145.0441301,-38.2310321
Cowes Medical Centre,"164 Thompson Avenue, Cowes",145.238397,-38.456861
Ultra Health Care,"1160 Nepean Highway, Cheltenham",145.0529468,-37.95983409999999
Advantage Medical & Dental - Rosebud,"1541 Point Nepean Road, Capel Sound",144.883328,-38.362025
Medical Centre Frankston,"54/56 Cranbourne Road, Frankston",145.133392,-38.14599400000001
Whole Medicine General Practice,"113 Boneo Road, Rosebud",144.889749,-38.3715822
Dandenong Hospital,"135 David Street, Dandenong",145.2192169,-37.976484
The Pound Road Medical Centre,"370-372 Pound Road, Narre Warren South",145.2893071,-38.03820030000001
Narregate Medical & Dental Centre,"60 Victor Crescent, Narre Warren",145.3127235,-38.0219585
South Coast Medical - Blairgowrie,"2841 Point Nepean Road, Blairgowrie",144.7786965,-38.3612488
Doctors at Casey Medical Centre,"G/50-52 Kangan Drive, Berwick",145.3461395,-38.0422524
Hospital Developments International PTY Ltd.,"17 Maberley Crescent, Frankston South",145.1321993,-38.1828879
Dental Computing Services,"433 Nepean Highway, Frankston South",145.122068,-38.14226
Southern Eye Centre & Day Surgery,"44 Cranbourne Road, Frankston",145.1320811,-38.1458714
Atticus Health Medical Clinic Carrum,"505A Station Street, Carrum",145.123144,-38.07554
ACTIVE ONE Health Professional Group,"25 Yuille Street, Frankston",145.1251467,-38.1534677
Frankston Pain Management,"Suite 7/20 Clarendon Street, Frankston",145.131247,-38.150238
Botany Park Maternal & Child Health Centre,"53R Lyrebird Drive, Carrum Downs",145.1746289,-38.1110579
South Coast Medical - Dromana,"1/251 Point Nepean Road, Dromana",144.964193,-38.33392679999999
Complete Skin Cancer Clinics Rosebud,"1079 Point Nepean Road, Rosebud",144.9036284,-38.3562993
Rosebud Medical Clinic,"12-16 Boneo Road, Rosebud",144.8892611,-38.3614327
Rye Family Clinic,"Shop 5/2217 Point Nepean Road, Rye",144.8284754,-38.37129079999999
Mornington Coastal Medical Centre,"958 Nepean Highway, Mornington",145.0437767,-38.2313422
Elite Medical Centre,"319 Main Street, Mornington",145.0426966,-38.2266674
True Aesthetics @ Mornington,"925 Nepean Highway, Mornington",145.0494584,-38.2252233
Atticus Health Medical Clinic Bittern,"Bittern Fields Shopping Centre, 6/2432 Frankston - Flinders Road, Bittern",145.1773235,-38.3362764
Atticus Health Medical Clinic Hastings,"2104/2106 Frankston - Flinders Road, Hastings",145.1831854,-38.3091984
Hastings Family Medical Centre,"9 Queen Street, Hastings",145.1889151,-38.3086569
Peninsula Foot Clinic,"4/67 Eramosa Road West, Somerville",145.1679278,-38.2232897
Atticus Health Medical Clinic Somerville,"Somerville Central Shop MM2, 49 Eramosa Road West, Somerville",145.1698421,-38.2243826
True Aesthetics @ Frankston,"Public Surgical Centre, 5 Susono Way, Frankston",145.1329886,-38.1544114
Frankston Public Surgical Centre - Peninsula Health,"5 Susono Way, Frankston",145.1331268,-38.1543972
Artystone Medical,"13 Hastings Road, Frankston",145.1304856,-38.1498796
Electromedicine Clinic,"Suite 4/20 Clarendon Street, Frankston",145.1312729,-38.1502162
Myhealth Bayside,"Bayside Shopping Centre, Shop MM11/28 Beach Street, Frankston",145.1244901,-38.1406397
Associate Professor Amar Trivedi,"164 Cranbourne Road, Frankston",145.147788,-38.1488118
Peninsula Private Hospital,"525 McClelland Drive, Langwarrin",145.1694092,-38.15771429999999
Centurion Healthcare,"Peninsula Private Hospital Specialist, Suite 7/525 McClelland Drive, Frankston",145.1695779,-38.1574961
Pearcedale Medical Centre,"58 Baxter-Tooradin Road, Pearcedale",145.2329631,-38.2029757
Core Podiatry Group,"81 Cranbourne-Frankston Road, Langwarrin",145.1802062,-38.1548881
Epichealth Medical Clinic Langwarrin,"Shop 24/230 Cranbourne-Frankston Road, Langwarrin",145.1962193,-38.1508508
TLC Medical Centres - Frankston North,"23 Forest Drive, Frankston North",145.1463037,-38.1233718
Point Lonsdale Medical Group,"4 Nelson Road, Point Lonsdale",144.619203,-38.273449
PRECISE PODIATRY,"Nelson Road, Point Lonsdale",144.619117,-38.272918
Carrum Downs Doctors,"5/335 Ballarto Road, Carrum Downs",145.193675,-38.116635
C D Medical Centre,"335 Ballarto Road, Carrum Downs",145.193668,-38.116597
McCormicks Road General Practice,"25 McCormicks Road, Carrum Downs",145.194173,-38.1147257
St John of God Langmore Centre,"3 Gibb Street, Berwick",145.3443999,-38.0344013
San Remo Medical Clinic,"123 Marine Parade, San Remo",145.369561,-38.521119
Chelsea Heights Medical Centre,"205 Thames Promenade, Chelsea Heights",145.1366736,-38.0448483
Stetho Health Cranbourne Medical & Dental Centre,"1 Ferndown Drive, Cranbourne",145.250228,-38.1224228
Chelsea Arcade Medical,"Chelsea Beach Arcade Shop 10 & 11, 10/426 Nepean Highway, Chelsea",145.11628,-38.05380220000001
Advantage Medical & Dental - Tooradin,"110 South Gippsland Highway, Tooradin",145.3823107,-38.2143937
Monash Health - Cranbourne Integrated Care Centre,"140-154 Sladen Street, Cranbourne",145.2816139,-38.1130723
Cranbourne Park Health & Wellness,"24 Mundaring Drive, Cranbourne",145.2813289,-38.1070271
INTEGRATED PSYCHOLOGY,"Suite 37/93 Wells Road, Chelsea Heights",145.1354006,-38.0328682
Our Medical Cranbourne,"32-36 Remount Way, Cranbourne West",145.2462548,-38.0791925
Shepparton Private Hospital,"20 Fitzgerald Street, Shepparton",145.411116,-36.3593756
Goulburn Medical Centre,"87 McLennan Street, Mooroopna",145.3590332,-36.3949624
In Hospitality,"76-80 Stewart Street, Shepparton",145.404987,-36.3810316
Medical Centre,"32 Anzac Avenue, Seymour",145.1395789,-37.0268205
Sana Medical Centre,"142 Nixon Street, Shepparton",145.4070844,-36.3781591
FAMILY MEDICAL CENTRE,"174 Nixon Street, Shepparton",145.4107583,-36.3786261
Goulburn Valley Health Tatura Campus,"64-68 Park Street, Tatura",145.2257696,-36.43927989999999
Yea & District Memorial Hospital,"45 Station Street, Yea",145.4309026,-37.21364449999999
Euroa Hospital,"38 Weir Street, Euroa",145.5704096,-36.7594863
Violet Town Medical Clinic,"31 Weir Street, Euroa",145.5711012,-36.759468
Goulburn Valley Health,"2/2-48 Graham Street, Shepparton",145.4045256,-36.3637012
Victoria Hospital DRC,"53 Wendouree Drive, Kialla",145.4020463,-36.43146069999999
Tristar Medical Group,"6-8 Waranga Drive, Kialla Lakes",145.3999247,-36.4162401
Seymour Health,"1 Bretonneux Street, Seymour",145.1387513,-37.0186725
Carehero,"61 Nunn Street, Benalla",145.9831379,-36.5504377
Ausrapid Inc,"4 Lowry Place, Benalla",145.9866251,-36.5520292
Coster Street Medical Practice,"8 Coster Street, Benalla",145.9897344,-36.5537264
Benalla Health,"45-63 Coster Street, Benalla",145.9947142,-36.5553438
Morrie Evans Nursing Home,Benalla,145.9955611,-36.55544190000001
Shepparton Surgery,"33A Vaughan Street, Shepparton",145.402085,-36.383239
Telaca Lodge,Shepparton,145.4,-36.38333300000001
Shepparton Respiratory Clinic,"172 Welsford Street, Shepparton",145.3971421,-36.3826456
Seymour Medical Clinic,"30-32 Anzac Avenue, Seymour",145.1392902,-37.0266732
Alexandra District Health,"12 Cooper Street, Alexandra",145.7172609,-37.1941587
GenesisCare,"124 Corio Street, Shepparton",145.4037808,-36.3783265
Shepparton Travel Clinic,"100-104 Corio Street, Shepparton",145.4038626,-36.3767808
MEDICUS,"58 Grant Street, Alexandra",145.7091124,-37.1912458
Alexandra Family Medical Centre,"114 Grant Street, Alexandra",145.71016,-37.1937994
Wellness Medical Clinic,"71B Wyndham Street, Shepparton",145.4012295,-36.37301770000001
Tatura Doctors,"151 Hogan Street, Tatura",145.2287259,-36.4397265
Gv private hospital,"23/9 Fitzgerald Street, Shepparton",145.4116099,-36.35941330000001
NORTH VICTORIA ONCOLOGY,"20 Fitzgerald Street, Shepparton",145.4108253,-36.3591833
Pine Partners Medical Centre,"Unit 3/127 Numurkah Road, Shepparton",145.4025629,-36.356983
Shepparton Laser Pain Therapy,"8 Welsford Street, Shepparton",145.3987815,-36.3744542
Knox Private Hospital,"262 Mountain Highway, Wantirna",145.227497,-37.8494319
Cabrini Malvern,"181/183 Wattletree Road, Malvern",145.0333447,-37.8618122
The Alfred,"55 Commercial Road, Melbourne",144.9818979,-37.8457479
The Royal Melbourne Hospital,"300 Grattan Street, Parkville",144.955973,-37.7986657
Brunswick Private Hospital,"82 Moreland Road, Brunswick",144.9721741,-37.7564796
Era Health Doctor Melbourne CBD,"Level 9/460 Bourke Street, Melbourne",144.9600673,-37.81494429999999
Mercy Hospital For Women,"163 Studley Road, Heidelberg",145.0609354,-37.7564835
Collins Street Medical Centre - Local Melbourne City Doctors,"7/267 Collins Street, Melbourne",144.9651366,-37.8161915
Peter MacCallum Cancer Centre,"305 Grattan Street, Melbourne",144.9565082,-37.8000078
Box Hill Hospital,"8 Arnold Street, Box Hill",145.1182877,-37.8135607
All Medical,"1309 High Street Road, Wantirna South",145.2216841,-37.8762443
Brunswick Central Medical Centre,"1/200 Sydney Road, Brunswick",144.9613302,-37.773136
Northern Hospital Epping,"185 Cooper Street, Epping",145.0145371,-37.6535152
Guardian Medical Hawthorn (Glenferrie Hill Medical),"522 Glenferrie Road, Hawthorn",145.0343092,-37.8291768
Camberwell Junction Medical Clinic,"6/8 Prospect Hill Road, Camberwell",145.0582335,-37.82846190000001
Valewood Clinic,"1 Wanda Street, Mulgrave",145.1643892,-37.9197904
Calvary Health Care Bethlehem - Calvary Kooyong Precinct Hospital,"476 Kooyong Road, Caulfield South",145.0132125,-37.8969028
Dandenong Hospital,"135 David Street, Dandenong",145.2192169,-37.976484
"St Vincent's Private Hospital, East Melbourne","159 Grey Street, East Melbourne",144.9841212,-37.81206349999999
Doncaster East Family Medical Centre,"116 Blackburn Road, Doncaster East",145.1618117,-37.7917316
Eastern Health Maroondah,"1/15 Davey Drive, Ringwood East",145.2544966,-37.80695169999999
Epworth Eastern,"1 Arnold Street, Box Hill",145.1195945,-37.8146135
Ultra Health Care,"1160 Nepean Highway, Cheltenham",145.0529468,-37.95983409999999
Ashwood Medical Group,"448 Warrigal Road, Ashburton",145.0919598,-37.86817159999999
High Street Medical Clinic,"139 High Street, Prahran",144.9917037,-37.8514495
Lilydale Medical Centre,"351 Main Street, Lilydale",145.355323,-37.756968
Narregate Medical & Dental Centre,"60 Victor Crescent, Narre Warren",145.3127235,-38.0219585
Westgate Health Co-Op,"2 Home Road, Newport",144.8875995,-37.8440825
Waverley Private Hospital,"343-357 Blackburn Road, Mount Waverley",145.1456568,-37.88436220000001
Weiner John Dr,"517 Saint Kilda Road, Melbourne",144.9791421,-37.8445279
St John of God Langmore Centre,"3 Gibb Street, Berwick",145.3443999,-38.0344013
Doctors at Casey Medical Centre,"G/50-52 Kangan Drive, Berwick",145.3461395,-38.0422524
Main Street Medical,"289 Main Street, Lilydale",145.352975,-37.7572417
TOP MEDICAL & COSMETIC HUB - TMCH (Swanston St. Medical Centre),"level 3/255 Bourke Street, Melbourne",144.966157,-37.8135749
Junction Place Medical Centre,"58 Harold Street, Hawthorn East",145.0560276,-37.8281243
The Avenue Hospital,"40 The Avenue, Windsor",144.9987172,-37.8547708
Brighton Family & Women's Clinic,"767 Nepean Highway, Brighton East",145.0222251,-37.919674
High Street Medical & Dental Centre Preston,"530/538 High Street, Preston",145.0050787,-37.73362789999999
Box Hill Mall Medical Centre,"8 Market Street, Box Hill",145.1221858,-37.818771
North Eastern Rehabilitation Centre,"134 Ford Street, Ivanhoe",145.0311476,-37.7634198
Moonee Ponds Medical & Dental Centre,"34/46 Holmes Road, Moonee Ponds",144.9179246,-37.76614369999999
Mitcham Private Hospital,"27 Doncaster East Road, Mitcham",145.195047,-37.8104249
Harmony Chinese Medical Centre Pty Ltd,"3 Wellington Street, Kew",145.0295359,-37.8088076
Frances Perry House,"Grattan St & Flemington Rd, Parkville",144.954937,-37.79893819999999
Epworth Freemasons,"320 Victoria Parade, East Melbourne",144.9824416,-37.8092455
Blackburn Road Medical Centre,"278/280 Blackburn Road, Doncaster East",145.1636746,-37.7819302
Brunswick Betta Health,"30 Sydney Road, Brunswick",144.96071,-37.77703
The Melbourne Clinic,"130 Church Street, Richmond",144.998825,-37.8146209
Eastern Health Box Hill,"8 Arnold Street, Box Hill",145.1187028,-37.81393639999999
Caulfield Hospital,"260 Kooyong Road, Caulfield",145.0161642,-37.8841585
313 Vets,"313 Riversdale Road, Hawthorn East",145.0481256,-37.8300619
Qualitas Medical Practice Bentleigh East (formerly Centre Road Medical Centre),"868 Centre Road, Bentleigh East",145.0743844,-37.9234132
Nunawading Clinic,"176 Springvale Road, Nunawading",145.1750207,-37.8213352
Sheehans Medical Centre,"81 Canterbury Road, Blackburn South",145.144218,-37.8311206
Balwyn Health Care,"4 Belmore Road, Balwyn",145.0633175,-37.80115979999999
Melbourne Private Hospital,"1F Royal Parade, Parkville",144.9572802,-37.79830259999999
The Pound Road Medical Centre,"370-372 Pound Road, Narre Warren South",145.2893071,-38.03820030000001
SIA Essendon Medical Centre,"1136/1140 Mount Alexander Road, Essendon",144.910806,-37.744666
Epworth Richmond,"89 Bridge Road, Richmond",144.9930606,-37.8172016
Northcote Medical Group,"147 Westbourne Grove, Northcote",144.996744,-37.77394700000001
Yea & District Memorial Hospital,"45 Station Street, Yea",145.4309026,-37.21364449999999
Alexandra District Health,"12 Cooper Street, Alexandra",145.7172609,-37.1941587
MANSFIELD DISTRICT HOSPITAL,"Loch Street, Mansfield",146.0854824,-37.05721449999999
MANSFIELD DISTRICT HOSPITAL,"86 Highett Street, Mansfield",146.0862558,-37.0610007
Mansfield District Hospital,"53 Highett Street, Mansfield",146.0859839,-37.0575225
Hillsong Medical Clinic,"13 Highett Street, Mansfield",146.0879448,-37.0505339
MANSFIELD DISTRICT HOSPITAL,"Erril Street, Mansfield",146.0898351,-37.0535556
Eildon Medical Centre,"3 High Street, Eildon",145.9142749,-37.2301707
MEDICUS,"58 Grant Street, Alexandra",145.7091124,-37.1912458
Alexandra Family Medical Centre,"114 Grant Street, Alexandra",145.71016,-37.1937994
Mount Buller Medical Centre,"40 Summit Road, Mount Buller",146.4452581,-37.1461818
Violet Town Medical Clinic,"31 Weir Street, Euroa",145.5711012,-36.759468
Euroa Hospital,"38 Weir Street, Euroa",145.5704096,-36.7594863
Lockington Bush Nursing Centre,"31 Pannoo Road, Lockington",144.531435,-36.27136309999999
Active Podiatry: Echuca,"342 High Street, Echuca",144.7503865,-36.1356952
Vic Public Hospitals,"88 Fenaughty Street, Kyabram",145.0421759,-36.3152648
Echuca Regional Health,"226 Service Street, Echuca",144.7479603,-36.1391581
Kyabram District Health Service,"86-96 Fenaughty Street, Kyabram",145.0425369,-36.3151718
Rochester & Elmore District Health Service,"1 Pascoe Street, Rochester",144.6979363,-36.36581350000001
The Holistic Care Collective,"13 Percy Street, Echuca",144.7497441,-36.1257033
Meninya medical clinic,"33 Meninya Street, Moama",144.7562103,-36.1127738
Echuca Regional Health Education building,"237 Leichardt Street, Echuca",144.7466154,-36.1376778
Dove Medical Centre,"309 High Street, Echuca",144.7503662,-36.1391983
Rich River Health Group,"214 Ogilvie Avenue, Echuca",144.7487959,-36.140159
Maxwells Hospitality & Catering supplies,"111 Ogilvie Avenue, Echuca",144.760002,-36.141085
Kyabram Regional Clinic,"98 Fenaughty Street, Kyabram",145.0433694,-36.3149458
NCN Health - Nathalia,"36-44 McDonell Street, Nathalia",145.197655,-36.056341
iSpot Skin Cancer Clinic,"10 Hazelwood Road, Traralgon",146.520832,-38.2041557
Latrobe Community Health Service,"cnr Seymour St &, Princes Highway, Traralgon",146.5408288,-38.1962578
Mid Valley Family Medicine,"Shop/59 Mid Valley Drive, Morwell",146.430788,-38.23652199999999
Gladstone Street Medical Clinic,"46 Gladstone Street, Warragul",145.937168,-38.1613588
Victoria Street Medical Clinic,"27A Victoria Street, Warragul",145.9302223,-38.1621722
yarram district health centre,"33 Commercial Road, Yarram",146.681325,-38.5527925
Maryvale Private Hospital,"286 Maryvale Road, Morwell",146.4190443,-38.215552
Hollie Drive Medical Centre,"5 Hollie Drive, Morwell",146.4325077,-38.2354807
Latrobe Community Health Service,"42-44 Fowler Street, Moe",146.2606701,-38.180294
Hillcrest Family Medicine,"26 Seymour Street, Traralgon",146.538795,-38.196155
Tanjil Place Medical,"46-48 Albert Street, Moe",146.2627842,-38.1743573
Gippsland Private Consulting Suites,"Latrobe Regional Hospital, 10 Village Avenue, Traralgon",146.4742122,-38.2180293
Latrobe Regional Health (LRH),"10 Village Avenue, Traralgon",146.4717147,-38.2185533
Latrobe Medical Centre,"18 Breed Street, Traralgon",146.5332337,-38.1979914
Flourish Medical Group | Bulk Billing,"2/12 Deakin Street, Traralgon",146.5342997,-38.1973727
Family Health Traralgon,"27 Hotham Street, Traralgon",146.5388159,-38.1977164
Maryvale General Practice,"286 Maryvale Road, Morwell",146.4170755,-38.2182155
Nature's Health,"Farnham Court Motel, 30 Princes Drive, Morwell",146.418592,-38.24111430000001
Hazelwood Health Centre,"9a Georgina Place, Churchill",146.42102,-38.31230499999999
Churchill Family Practice,"10 West Place, Churchill",146.4206955,-38.3135082
Heyfield Hospital,"14 Licola Road, Heyfield",146.7840094,-37.9763259
Loch Street Medical Centre (LSMC),"7 Loch Street, Yarragon",146.0616066,-38.204081
Neerim District Health Service,"29-39 Main Neerim Road, Neerim South",145.9539713,-38.022598
Warragul Medical Centre,"33 Victoria Street, Warragul",145.9300722,-38.1618968
The Aesthetic Nurse Emily Deen,"49 Victoria Street, Warragul",145.9298656,-38.16132589999999
Melbourne Heart Care | Cardiologist in Warragul,"2/71 Victoria Street, Warragul",145.9295349,-38.15985479999999
Men's Health Melbourne - Mr. Darren Katz,"41 Landsborough Street, Warragul",145.9288324,-38.17284790000001
West Gippsland Hospital (Warragul) - WGHG,"41 Landsborough Street, Warragul",145.9278279,-38.172926
Westgippsland Orthopaedics,"41 Landsborough Street, Warragul",145.9276797,-38.1729995
Community Rehabilitation Service (Allied Health) - WGHG,"Ley Street, Warragul",145.926604,-38.173011
Maffra Medical Centre,"140 Johnson Street, Maffra",146.9779377,-37.9675071
Yarram & District Health Service,"85 Commercial Road, Yarram",146.6783588,-38.5570526
Maffra District Hospital,"48 Kent Street, Maffra",146.9832786,-37.9609641
King Street Clinic,"6 King Street, Yarram",146.6774249,-38.5613879
Lister House Medical Clinic,"146 Baillie Street, Horsham",142.2008418,-36.7115205
"Wimera Health Care Group, Dimboola Campus","Wimmera Health Care Group, 154-158 Lloyd Street, Dimboola",142.0244902,-36.4503703
"Rural Northwest Health, Warracknabeal Campus","18 Dimboola Road, Warracknabeal",142.3825057,-36.2525002
Wimmera Base Hospital,"83 Baillie Street, Horsham",142.2094235,-36.711888
Horsham Doctors,"1C Madden Street, Horsham",142.198459,-36.71833120000001
Horsham Skin Cancer Clinic,"47 Roberts Avenue, Horsham",142.1981603,-36.7145016
Dimboola District Hospital Dimboola,"32/34 Anderson Street, Dimboola",142.024434,-36.4498316
Maternity Outpatient Clinic,"20 McLachlan Street, Horsham",142.2019097,-36.712892
Knox Private Hospital,"262 Mountain Highway, Wantirna",145.227497,-37.8494319
Cabrini Malvern,"181/183 Wattletree Road, Malvern",145.0333447,-37.8618122
The Alfred,"55 Commercial Road, Melbourne",144.9818979,-37.8457479
The Royal Melbourne Hospital,"300 Grattan Street, Parkville",144.955973,-37.7986657
Brunswick Private Hospital,"82 Moreland Road, Brunswick",144.9721741,-37.7564796
Era Health Doctor Melbourne CBD,"Level 9/460 Bourke Street, Melbourne",144.9600673,-37.81494429999999
Mercy Hospital For Women,"163 Studley Road, Heidelberg",145.0609354,-37.7564835
Collins Street Medical Centre - Local Melbourne City Doctors,"7/267 Collins Street, Melbourne",144.9651366,-37.8161915
Peter MacCallum Cancer Centre,"305 Grattan Street, Melbourne",144.9565082,-37.8000078
Northern Hospital Epping,"185 Cooper Street, Epping",145.0145371,-37.6535152
Box Hill Hospital,"8 Arnold Street, Box Hill",145.1182877,-37.8135607
Brunswick Central Medical Centre,"1/200 Sydney Road, Brunswick",144.9613302,-37.773136
All Medical,"1309 High Street Road, Wantirna South",145.2216841,-37.8762443
Camberwell Junction Medical Clinic,"6/8 Prospect Hill Road, Camberwell",145.0582335,-37.82846190000001
Guardian Medical Hawthorn (Glenferrie Hill Medical),"522 Glenferrie Road, Hawthorn",145.0343092,-37.8291768
"St Vincent's Private Hospital, East Melbourne","159 Grey Street, East Melbourne",144.9841212,-37.81206349999999
Doncaster East Family Medical Centre,"116 Blackburn Road, Doncaster East",145.1618117,-37.7917316
Valewood Clinic,"1 Wanda Street, Mulgrave",145.1643892,-37.9197904
Eastern Health Maroondah,"1/15 Davey Drive, Ringwood East",145.2544966,-37.80695169999999
Epworth Eastern,"1 Arnold Street, Box Hill",145.1195945,-37.8146135
Calvary Health Care Bethlehem - Calvary Kooyong Precinct Hospital,"476 Kooyong Road, Caulfield South",145.0132125,-37.8969028
Lilydale Medical Centre,"351 Main Street, Lilydale",145.355323,-37.756968
Ashwood Medical Group,"448 Warrigal Road, Ashburton",145.0919598,-37.86817159999999
High Street Medical Clinic,"139 High Street, Prahran",144.9917037,-37.8514495
Waverley Private Hospital,"343-357 Blackburn Road, Mount Waverley",145.1456568,-37.88436220000001
Main Street Medical,"289 Main Street, Lilydale",145.352975,-37.7572417
Weiner John Dr,"517 Saint Kilda Road, Melbourne",144.9791421,-37.8445279
High Street Medical & Dental Centre Preston,"530/538 High Street, Preston",145.0050787,-37.73362789999999
Moonee Ponds Medical & Dental Centre,"34/46 Holmes Road, Moonee Ponds",144.9179246,-37.76614369999999
Junction Place Medical Centre,"58 Harold Street, Hawthorn East",145.0560276,-37.8281243
TOP MEDICAL & COSMETIC HUB - TMCH (Swanston St. Medical Centre),"level 3/255 Bourke Street, Melbourne",144.966157,-37.8135749
North Eastern Rehabilitation Centre,"134 Ford Street, Ivanhoe",145.0311476,-37.7634198
Westgate Health Co-Op,"2 Home Road, Newport",144.8875995,-37.8440825
Box Hill Mall Medical Centre,"8 Market Street, Box Hill",145.1221858,-37.818771
Mitcham Private Hospital,"27 Doncaster East Road, Mitcham",145.195047,-37.8104249
Dandenong Hospital,"135 David Street, Dandenong",145.2192169,-37.976484
The Avenue Hospital,"40 The Avenue, Windsor",144.9987172,-37.8547708
Blackburn Road Medical Centre,"278/280 Blackburn Road, Doncaster East",145.1636746,-37.7819302
Harmony Chinese Medical Centre Pty Ltd,"3 Wellington Street, Kew",145.0295359,-37.8088076
Frances Perry House,"Grattan St & Flemington Rd, Parkville",144.954937,-37.79893819999999
Brunswick Betta Health,"30 Sydney Road, Brunswick",144.96071,-37.77703
Epworth Freemasons,"320 Victoria Parade, East Melbourne",144.9824416,-37.8092455
Eastern Health Box Hill,"8 Arnold Street, Box Hill",145.1187028,-37.81393639999999
Nunawading Clinic,"176 Springvale Road, Nunawading",145.1750207,-37.8213352
The Melbourne Clinic,"130 Church Street, Richmond",144.998825,-37.8146209
313 Vets,"313 Riversdale Road, Hawthorn East",145.0481256,-37.8300619
Sheehans Medical Centre,"81 Canterbury Road, Blackburn South",145.144218,-37.8311206
Balwyn Health Care,"4 Belmore Road, Balwyn",145.0633175,-37.80115979999999
SIA Essendon Medical Centre,"1136/1140 Mount Alexander Road, Essendon",144.910806,-37.744666
Melbourne Private Hospital,"1F Royal Parade, Parkville",144.9572802,-37.79830259999999
Caulfield Hospital,"260 Kooyong Road, Caulfield",145.0161642,-37.8841585
Northcote Medical Group,"147 Westbourne Grove, Northcote",144.996744,-37.77394700000001
Ultra Health Care,"1160 Nepean Highway, Cheltenham",145.0529468,-37.95983409999999
Epworth Richmond,"89 Bridge Road, Richmond",144.9930606,-37.8172016
Brighton Family & Women's Clinic,"767 Nepean Highway, Brighton East",145.0222251,-37.919674
Qualitas Medical Practice Bentleigh East (formerly Centre Road Medical Centre),"868 Centre Road, Bentleigh East",145.0743844,-37.9234132
MSI Richmond (East Melbourne) Abortion & Contraception Clinic,"Ground Floor East/678 Victoria Street, Richmond",145.0139982,-37.8121236
Austin Hospital,"145 Studley Road, Heidelberg",145.0586279,-37.7562696
Access Medical Group,"2 Magid Avenue, Wheelers Hill",145.161178,-37.9068912
Dorset Rehabilitation Centre,"146 Derby Street, Pascoe Vale",144.9474315,-37.7232931
WPRS,"Unit 3/136 Botanic Road, Warrnambool",142.4792621,-38.3710274
Gunditjmara Health Clinic,"24 Hopkins Road, Warrnambool",142.508314,-38.3937211
South West Healthcare,"25 Ryot Street, Warrnambool",142.473434,-38.38013729999999
St John of God Warrnambool Hospital,"136 Botanic Road, Warrnambool",142.478295,-38.3717365
Lake Imaging - Moyne Health Services Port Fairy,"30/36 Villiers Street, Port Fairy",142.2274995,-38.38154049999999
"Rotary House, Timor St","Timor Street, Warrnambool",142.4799233,-38.384353
WRAD Health and Handbury GP Bulk Billing Medical Clinic,"172 Merri Street, Warrnambool",142.478536,-38.3857033
Chiron Clinic,"1 Banyan Street, Warrnambool",142.4830468,-38.3877426
Women’s Health Service,"Ryot Street, Warrnambool",142.4749675,-38.37889589999999
Southwest Equine Veterinary Group,"2 Park Street, Warrnambool",142.5049638,-38.3824456
Deakin Medical Centre Warrnambool,"Aitken Drive, Warrnambool",142.5372908,-38.3912041
Port Fairy Osteopathic Clinic,"117 Regent Street, Port Fairy",142.2247327,-38.3805684
Terang & Mortlake Health Service,"13 Austin Avenue, Terang",142.902109,-38.239325
Terang Medical Clinic,"156 High Street, Terang",142.9110762,-38.240152
Timboon and District Healthcare Service,"21 Hospital Road, Timboon",142.976516,-38.486205
Mount Buller Medical Centre,"40 Summit Road, Mount Buller",146.4452581,-37.1461818
MANSFIELD DISTRICT HOSPITAL,"86 Highett Street, Mansfield",146.0862558,-37.0610007
MANSFIELD DISTRICT HOSPITAL,"Erril Street, Mansfield",146.0898351,-37.0535556
Mansfield District Hospital,"53 Highett Street, Mansfield",146.0859839,-37.0575225
MANSFIELD DISTRICT HOSPITAL,"Loch Street, Mansfield",146.0854824,-37.05721449999999
Hillsong Medical Clinic,"13 Highett Street, Mansfield",146.0879448,-37.0505339
Eildon Medical Centre,"3 High Street, Eildon",145.9142749,-37.2301707
South Gippsland Therapy Centre,"8 Peart Street, Leongatha",145.9437489,-38.4768254
Wonthaggi clinic,"5672, 189 Graham Street, Wonthaggi",145.587443,-38.60664879999999
Wonthaggi Hospital - Bass Coast Health,"235 Graham Street, Wonthaggi",145.5810229,-38.6071979
Gippsland Southern Health Service- Leongatha Hospital,"66 Koonwarra Road, Leongatha",145.950678,-38.4874581
Gippsland Southern Health Service,"8 Gordon Street, Korumburra",145.8268967,-38.4308255
South Gippsland Hospital,"83/87 Station Road, Foster",146.2060157,-38.65858309999999
Gippsland Southern Health Service,"23 Sloan Avenue, Leongatha",145.9493143,-38.48747549999999
Long Street Family Medicine,"1 Long Street, Leongatha",145.949733,-38.47929000000001
South Gippsland Family Medicine,"Shop 4-6/1 Billson Street, Wonthaggi",145.588699,-38.605412
Nyora Medical Centre,"42 Davis Street, Nyora",145.6723199,-38.3348978
Brooke Street Medical Centre,"14 Brooke Street, Woodend",144.5293247,-37.35963640000001
Ochre Medical Centre Lancefield,"17 High Street, Lancefield",144.7341079,-37.27749670000001
Bendigo Medical - Epsom Clinic,"27 Howard Street, Epsom",144.3184203,-36.7056142
Maternal & Child Health Centres,"15 Lyttleton Street, Castlemaine",144.2162662,-37.0640945
Parkwood Green medical centre Romsey,"117 Main Street, Romsey",144.742025,-37.34746399999999
Medical Centre,"32 Anzac Avenue, Seymour",145.1395789,-37.0268205
Lifeline Healthcare Group Romsey,"28 Main Street, Romsey",144.7442452,-37.3562222
Castlemaine Health,"142 Cornish Street, Castlemaine",144.2116766,-37.0542662
Dr Hany Georgeos,"Somerville Street clinic, 28a Somerville Street, Flora Hill",144.2902634,-36.7718702
Bendigo Medical Centre,"226 High Street, Kangaroo Flat",144.2416444,-36.8036435
Kangaroo Flat Medical Centre,"68-72 High Street, Kangaroo Flat",144.2439101,-36.7923852
Bendigo Health,"100 Barnard Street, Bendigo",144.280769,-36.749617
Bendigo Day Surgery,"1 Chum Street, Bendigo",144.2615725,-36.7619607
Kilmore District Health,"1 Anderson Road, Kilmore",144.9582077,-37.30233700000001
Bendigo Medical Centre,"63-65 Bridge Street, Bendigo",144.2838657,-36.7517023
Botanical Gardens Health,"137 Cornish Street, Castlemaine",144.2121109,-37.05473569999999
St John of God Bendigo Hospital,"133-145 Lily Street, Bendigo",144.2632878,-36.7621268
Kyneton Health,"7-25 Caroline Chisholm Drive, Kyneton",144.4703049,-37.2547934
Anne Caudle Centre,"100 Barnard Street, Bendigo",144.2798359,-36.75126789999999
Seymour Health,"1 Bretonneux Street, Seymour",145.1387513,-37.0186725
Victoria Public Hospitals,"39-55 Hospital Street, Heathcote",144.7094241,-36.9259429
Heathcote Health,"39 Hospital Street, Heathcote",144.709277,-36.9258855
Mcivor Medical Centre,"150 High Street, Heathcote",144.7082714,-36.9209027
Strathfieldsaye Primary Health,"34 Blucher Street, Strathfieldsaye",144.3587452,-36.805887
Kyneton Medical Centre,"9/11 Market Street, Kyneton",144.4546001,-37.24840809999999
Springs Medical,"89 Piper Street, Kyneton",144.4468743,-37.244086
"ACE Children's Health, Dr.Gaurav KULKARNI","955 Wellington Street, Strathfieldsaye",144.3592275,-36.80623499999999
MTB Trail Head,Chewton,144.2387136,-37.0802899
Kilmore Medical Practice,"105 Powlett Street, Kilmore",144.9500228,-37.30625089999999
Doctor at Castlemaine,"29 Lyttleton Street, Castlemaine",144.2191755,-37.0644322
Broadford Medical Clinic,"28 Powlett Street, Broadford",145.046578,-37.203752
Dhelkaya Health - Castlemaine Campus,"Castlemaine Health, 142 Cornish Street, Castlemaine",144.2124914,-37.0538598
Strath Village Medical Centre,"Shop 10/134 Condon Street, Kennington",144.3050494,-36.77445629999999
HealthFix Medical Centre,"120 Condon Street, Kennington",144.303535,-36.7730205
SkinGP Woodend,"44B Anslow Street, Woodend",144.5285281,-37.3571486
Flora Hill Medical Centre - Family friendly GP practice,"153 Neale Street, Flora Hill",144.2931183,-36.77487540000001
Flora Hill Medical Practice,"153 Neale Street, Kennington",144.2931006,-36.7748483
"Neal Street Medical Clinic, Woodend","65 High Street, Woodend",144.5265977,-37.3579814
Seymour Medical Clinic,"30-32 Anzac Avenue, Seymour",145.1392902,-37.0266732
Lowndes Street Clinic,"9 Lowndes Street, Kennington",144.2980085,-36.7647664
Somerville Street Clinic,"28A Somerville Street, Flora Hill",144.2902994,-36.77191149999999
Bendigo Health Havlin Street,Kennington,144.2907655,-36.7663304
Sandhurst Medical Practice,"Level 1/84 Mollison Street, Bendigo",144.2855694,-36.76089510000001
Sonic,"84 Mollison Street, Bendigo",144.2855057,-36.7608624
Bendigo Doctors,"Bendigo Marketplace, G072 – G073, 116/120 Mitchell Street, Bendigo",144.2812643,-36.7646852
Breen Street Medical Practice - Bendigo GP,"64 Breen Street, Quarry Hill",144.275551,-36.768971
Breen St Medical Practice,"64 Breen Street, Quarry Hill",144.2755647,-36.76888189999999
Bendigo Community Health Service,"75 Mitchell Street, Bendigo",144.280973,-36.76155019999999
Regional Vascular Services Bendigo,"465 Hargreaves Street, Bendigo",144.2748821,-36.7643771
White Hills Medical Practice,"496 Napier Street, White Hills",144.3060521,-36.7303485
Lucan St. Medical,"89 Lucan Street, Bendigo",144.2846679,-36.7495422
Bendigo GP and Specialist Suites,"282 High Street, Golden Square",144.2624469,-36.77033719999999
Bendigo Health - Lucan Street Campus,"100 Lucan Street, Bendigo",144.2818199,-36.7487512
View Street Consulting Rooms (Mr Dan Fletcher General Surgeon),"203 View Street, Bendigo",144.2742571,-36.7558066
Victorian Osteoporosis Centre,"20 Drought Street, Bendigo",144.2797137,-36.7489496
Bendigo Respiratory,"210 Barnard Street, Bendigo",144.273345,-36.7553327
Active Podiatry,"18 Eaglehawk Road, Ironbark",144.2681823,-36.75606179999999
Dr Simon Thompson,"43 Eaglehawk Road, Ironbark",144.2647355,-36.756043
GP Care Eaglehawk,"Shop 2/162-170 Eaglehawk Road, Long Gully",144.258333,-36.7458212
great falls vet,"Bright Street, California Gully",144.2675198,-36.7234953
