Name,Address,Longitude,Latitude
Westfield Doncaster,"619 Doncaster Road, Doncaster",145.125484,-37.78689209999999
Greensborough Plaza,"25 Main Street, Greensborough",145.1031319,-37.7026269
Westfield Fountain Gate,"25/55 Overland Drive, Narre Warren",145.3042624,-38.0175702
South Melbourne Market,"322-326 Coventry Street, South Melbourne",144.9559391,-37.8320111
DFO Moorabbin,"250 Centre Dandenong Road, Moorabbin Airport",145.0888717,-37.9710583
DFO Essendon,"100 Bulla Road, Essendon Fields",144.908863,-37.7331429
Victoria Gardens Shopping Centre,"620 Victoria Street, Richmond",145.0116083,-37.8132375
The Jam Factory,"500 Chapel Street, South Yarra",144.995328,-37.8427394
Westfield Knox,"425 Burwood Highway, Wantirna South",145.2408593,-37.8696283
Linen House Outlet Heatherton,"60 Corporate Drive, Heatherton",145.0822467,-37.9479721
Craigieburn Central,"340 Craigieburn Road, Craigieburn",144.9133132,-37.59263250000001
Radical RC Hobbies,"3/490 Mahoneys Road, Campbellfield",144.9641538,-37.6896534
Brand Smart,"288 Whitehorse Road, Nunawading",145.1719172,-37.8186884
Gladstone Park Shopping Centre,"8/34 Gladstone Park Drive, Gladstone Park",144.8846293,-37.68814289999999
Woodgrove Shopping Centre,"533-555 High Street, Melton West",144.5623604,-37.68583939999999
The Como Centre,"Toorak Road, South Yarra",144.9958624,-37.8394149
Burnside Hub,"15/25 Westwood Drive, Burnside",144.754415,-37.759917
Broadmeadows Central,"1099-1169 Pascoe Vale Road, Broadmeadows",144.9193346,-37.6804006
Westfield Plenty Valley,"415 McDonalds Road, Mill Park",145.071735,-37.6514214
Chadstone - The Fashion Capital,"1341 Dandenong Road, Malvern East",145.082586,-37.8878465
The Glen,"235 Springvale Road, Glen Waverley",145.164989,-37.87589699999999
Westfield Airport West,"29/35 Louis Street, Airport West",144.8865002,-37.71387559999999
Pran Central Shopping Centre,"325 Chapel Street, Prahran",144.9934684,-37.8472959
Melbourne's GPO,"350 Bourke Street, Melbourne",144.9632758,-37.8135391
Stockland Point Cook,"Level 1/2 Main Street, Point Cook",144.7353879,-37.8833691
Watergardens Shopping Centre,"399 Melton Highway, Taylors Lakes",144.7767572,-37.6989971
Sweet Tomato,"371-373 Clayton Road, Clayton",145.1190045,-37.9268891
The Pines Shopping Centre,"181 Reynolds Road, Doncaster East",145.1686409,-37.7619566
Parkmore Shopping Centre,"317 Cheltenham Road, Keysborough",145.1730838,-37.9925747
Royal Arcade,"335 Bourke Street, Melbourne",144.9640625,-37.8145388
Forest Hill Chase,"270 Canterbury Road, Forest Hill",145.1644833,-37.8355107
670 Chapel,"670 Chapel Street, South Yarra",144.996265,-37.83735300000001
The Block Arcade,"282 Collins Street, Melbourne",144.9646665,-37.815795
Westfield Southland,"1239 Nepean Highway, Cheltenham",145.0510807,-37.9584584
Northland Shopping Centre,"2-50 Murray Road, Preston",145.0299969,-37.7389461
Collins Place,"45 Collins Street, Melbourne",144.9733256,-37.8144674
Casey Central,"400 Narre Warren - Cranbourne Road, Narre Warren South",145.3001416,-38.0671339
Cranbourne Park Shopping Centre,"125 High Street, Cranbourne",145.2821866,-38.1089868
Eastland Shopping Centre,"175 Maroondah Highway, Ringwood",145.2292803,-37.81265920000001
Box Hill Central,"1 Main Street, Box Hill",145.1220999,-37.81910179999999
Barkly Square,"90-106 Sydney Road, Brunswick",144.9620386,-37.7756812
Altona Village,Altona,144.8292597,-37.8694697
MAX&Co.,"619 Doncaster Road, Doncaster",145.1264043,-37.7841847
Springvale Plaza Shopping Centre,"Heatherton Road, Springvale South",145.1431527,-37.9618704
ANAESSIA & CARNIVEL BRIDAL FASHION HOUSE,"St Collins Lane Ground Floor, Shop RG07, 260 Collins Street, Melbourne",144.9650986,-37.8152725
Burwood One Shopping Centre,"172-210 Burwood Highway, Burwood East",145.1501371,-37.8537966
Centrepoint,"283-297 Bourke Street, Melbourne",144.9652277,-37.81411209999999
Costanzo Coburg,"382-384 Sydney Road, Coburg",144.966272,-37.744492
IGA Xpress Croydon South,"13 The Mall, Croydon South",145.270508,-37.811268
Essential Additions,"162 Dougharty Road, Heidelberg West",145.0440723,-37.73353669999999
W. H. Amad,"33 Charles Street, Coburg North",144.9573108,-37.7307421
Allway Matting by MatTek,"factory 2/7-9 Newcastle Road, Bayswater",145.283227,-37.842865
The Strand Melbourne,"250 Elizabeth Street, Melbourne",144.9627044,-37.81278229999999
Bourke Street Mall,"Bourke Street Mall, Melbourne",144.9644379,-37.81376849999999
Emporium Melbourne,"287 Lonsdale Street, Melbourne",144.9638295,-37.8124234
Melbourne Central,"Cnr LaTrobe and Swanston Streets, Melbourne",144.9627652,-37.8102361
Midtown Melbourne,"246 Bourke Street, Melbourne",144.9658905,-37.81307650000001
260 Collins,"260 Collins Street, Melbourne",144.9649979,-37.8156628
Southern Cross Lane,"Level 4/121 Exhibition Street, Melbourne",144.9703301,-37.8127175
Bourke Place,"600 Bourke Street, Melbourne",144.955988,-37.8159365
Stockland Point Cook,"Level 1/2 Main Street, Point Cook",144.7353879,-37.8833691
Piccadilly Market,"153 Pakington Street, Geelong West",144.3474838,-38.1409574
Belmont Village Shopping Centre,"65 High Street, Belmont",144.3495391,-38.169889
Newlanders IGA,"45/47 Hughes Street, Bell Park",144.334239,-38.110873
Geelong Gate Homemaker Centre,"470-510 Princes Highway, Corio",144.3834296,-38.064583
Wyndham Vale Square Shopping Centre,"205 Greens Road, Wyndham Vale",144.6071871,-37.88778269999999
Manor Lakes Central Shopping Centre,"455 Ballan Road, Manor Lakes",144.6143579,-37.8758175
Pacific Werribee,"Cnr Derrimut Road &, Heaths Road, Hoppers Crossing",144.6804581,-37.8769343
Tarneit West Village,"550 Tarneit Road, Tarneit",144.6664475,-37.8596584
Featherbrook Shopping Centre,"238 Boardwalk Blvd &, 48 Windorah Drive, Point Cook",144.7270201,-37.8979057
W-LANE,"Unit 702/1 Main Street, Point Cook",144.7349175,-37.88371220000001
Market Square Shopping Centre,"Cnr Malop St &, Moorabool Street, Geelong",144.3609114,-38.1475822
Manor Lakes Medical Centre,"Shop 5/8 Manor Lakes Boulevard, Wyndham Vale",144.6140171,-37.8763629
Pakington Strand,"95-103 Pakington Street, Geelong West",144.3486598,-38.137926
Corio Village,"83A Purnell Road, Corio",144.3561671,-38.075528
Westfield Geelong,"95 Malop Street, Geelong",144.3627389,-38.1466499
Wyndham Village Shopping Centre,"380 Sayers Road, Tarneit",144.7044865,-37.8493732
Waurn Ponds Shopping Centre,"Cnr Colac &, Pioneer Road, Waurn Ponds",144.3198724,-38.20010449999999
Gateway Plaza Leopold,"621/659 Bellarine Highway, Leopold",144.4553202,-38.1856221
Centrepoint Arcade,"193 Ryrie Street, Geelong",144.3614607,-38.149642
Safari Kids Animal Rides,"Market Square, Geelong",144.360693,-38.1500616
KeyKing,"Kiosk 2, Market Square Shopping Centre, Moorabool Street, Geelong",144.3618389,-38.1481028
Renew Geelong Concept Space,"107 Moorabool Street, Geelong",144.3607827,-38.147809
Geelong Central,"100/108 Moorabool Street, Geelong",144.3602916,-38.1476571
Belmont Lotto & Tobacconist,"Shop 6-8/65 High Street, Belmont",144.3493082,-38.1699007
West Coast Plaza,High Street,144.3451589,-38.1723491
Bellarine Village Shopping Centre,"27-37 Bellarine Highway, Newcomb",144.3887315,-38.1687151
Belmont Walk,"Thomson Street, Belmont",144.3422403,-38.1743707
Newcomb Central Shopping Centre,"71 Bellarine Highway, Newcomb",144.3926735,-38.1700271
Highton Shopping Village,Highton,144.3243781,-38.1722764
Newcomb central shopping centres. Newcomb,"Kidman Ave &, Torquay Road, Belmont",144.3442694,-38.1856945
Bulbs Direct,"244 Portarlington Road, Moolap",144.4099719,-38.1635725
Barrabool Hills Plaza,"36-46 Province Boulevard, Highton",144.3062065,-38.1608293
Grovedale Plaza,"124 Burdoo Drive, Grovedale",144.3300289,-38.2080097
Bell Post Hill Laundromat,"Shop 2A 290/306 Anakie Road, Bell Post Hill",144.3360194,-38.089965
Bellpost Shopping Centre,"306 Anakie Road, Norlane",144.3369994,-38.0895035
Geelong Homemaker Centre,"235 Colac Road, Waurn Ponds",144.3083035,-38.2030237
Corio Village Food Court,"83 Bacchus Marsh Road, Corio",144.3556607,-38.07526579999999
Corio Village: Woolworths Entrance,"Bacchus Marsh Rd &, Purnell Road, Corio",144.3571856,-38.0750433
Eco Laundry Room (Corio),"Shop 76/83A Purnell Road, Corio",144.3564858,-38.0749407
Corio Village: Centrelink Entrance,"Corner of Bacchus Marsh Road and Purnell Road Corio Village Shopping Centre, Shop G001, Corio",144.3563309,-38.0747646
HomeCo. Armstrong Creek Town Centre (ACTC),"40 Main Street, Armstrong Creek",144.3400445,-38.2271142
The Village Warralily Shopping Centre,"3/33 Central Boulevard, Armstrong Creek",144.3722798,-38.2300895
Lara Village Shopping Centre,"4/2 Waverley Road, Lara",144.4101079,-38.0234917
Eco Laundry Room (Lara),"Lara Village Shopping Centre, Unit 1 A/120 Station Lake Road, Lara",144.410294,-38.02316069999999
Bayview Central Curlewis,"90 Centennial Boulevard, Curlewis",144.5449063,-38.1688674
The Dunes Village,"222 Fischer Street, Torquay",144.3302344,-38.30797949999999
Australian Business Consumables,"11 Cylinders Drive, Torquay",144.3161397,-38.3113508
Kingston Village Square,"122-160 Grubb Road, Ocean Grove",144.5405593,-38.246704
Ocean Plaza,"91 Presidents Avenue, Ocean Grove",144.5226735,-38.26690749999999
Trak Arcade,"18 Park Lane, Ocean Grove",144.5232846,-38.2676534
Skate Garage,"114b Surf Coast Highway, Torquay",144.3178904,-38.3266279
Ocean Grove Marketplace,"2/20 Kingston Downs Drive, Ocean Grove",144.5482405,-38.2579083
Eco Laundry Room (Ocean Grove),"Ocean Grove Marketplace, Shop 14/2-20 Kingston Downs Drive, Ocean Grove",144.5484857,-38.2585266
Bannockburn Plaza,"Shop 12/6 High Street, Bannockburn",144.1716137,-38.0449649
Bannockburn Central Shopping Centre,"17 McPhillips Road, Bannockburn",144.1706754,-38.0435165
Torquay Village,"41 Bristol Road, Torquay",144.320432,-38.3315133
Nauticalia World,"49 Newcombe Street, Portarlington",144.6519097,-38.11460339999999
two dollar shop (One - Variety Discount Shop),"Manor Lakes Boulevard, Wyndham Vale",144.6142294,-37.8762055
Best&Less Manor Lakes,"Shop MM01/455 Ballan Road, Manor Lakes",144.614568,-37.8758361
Central Square Ballarat Shopping Centre,"18 Armstrong Street South, Ballarat Central",143.8555244,-37.5626109
Country Grocers Ballan,"135 Inglis Street, Ballan",144.2249569,-37.6004486
Stockland Wendouree Shopping Centre,"Norman Street &, Gillies Street North, Wendouree",143.8239425,-37.5343847
Country Kids Ballarat,"25 Bridge Mall, Ballarat Central",143.8619222,-37.5619271
The Block Arcade Ballarat,"1 Doveton Street South, Ballarat Central",143.8548657,-37.56295289999999
City Centre Arcade,"315 Sturt Street, Ballarat Central",143.8553954,-37.5621349
Eureka House,"11 Lydiard Street South, Ballarat Central",143.8578284,-37.5625757
Norwich Plaza,"15 Bridge Mall, Ballarat Central",143.8614342,-37.5622653
Alfred Square,"1/61 Curtis Street, Ballarat Central",143.8618136,-37.5610685
drift,"Bridge Mall, Ballarat Central",143.8625474,-37.56196540000001
The Bridge,"62A Bridge Mall, Ballarat Central",143.8627363,-37.5628785
Bakery Hill Shopping Centre,"73 Victoria Street, Bakery Hill",143.86846,-37.5614121
Ballarat Wholefoods Collective,"Barkly Street, Ballarat East",143.8688818,-37.56420980000001
Northway Shopping Center,"Norman Street, Wendouree",143.8588365,-37.53698469999999
RUG N ROLL,"Opposite Coles, Stockland Wendouree Shopping, Shop T74 Norman Street &, Gillies Street North, Wendouree",143.8246959,-37.5352276
Local Shops,"300 Gillies Street North, Wendouree",143.8246866,-37.5345042
Dangerfield Stockland Wendouree,"Shop 107 Stockland Shopping Center VIC Norman Street &, Gillies Street North, Wendouree",143.8225264,-37.5357094
Home Ballarat,"333 Gillies Street North, Wendouree",143.822405,-37.53449570000001
Eureka Homemaker Centre,Wendouree,143.8170658,-37.5339703
Midvale Shopping Centre,"1178 Geelong Road, Mount Clear",143.8678959,-37.6027865
Delacombe Town Centre,"315 Glenelg Highway, Smythes Creek",143.8048664,-37.5921971
Coltman Plaza - Lucas Shopping Centre,"6 Coltman Plaza, Lucas",143.7860122,-37.5435895
Strath Village,"134 Condon Street, Bendigo",144.3046886,-36.7746043
Bendigo Marketplace,"116-120 Mitchell Street, Bendigo",144.2801867,-36.7658329
Abbott Arcade,"7 Queen Street, Bendigo",144.2815312,-36.7607191
Backhaus Arcade,"314 Lyttleton Terrace, Bendigo",144.2815196,-36.76128750000001
Malama Lounge,"Shop 1/11 Lowndes Street, Kennington",144.298255,-36.76485799999999
Bendigo Showgrounds Market,"Holmes Road, North Bendigo",144.2706344,-36.7389005
Kennington Village,"150 Condon Street, Kennington",144.306372,-36.7750889
Lansell Square,"267 High Street, Kangaroo Flat",144.2424245,-36.8104086
Chinese Traditional Massage,"27/267 High Street, Kangaroo Flat",144.2424459,-36.8104546
Eco Laundry Room (Bendigo),"Lansell Square, Shop 159/267 High Street, Kangaroo Flat",144.2418881,-36.8104494
Epsom Village,"22 Howard Street, Epsom",144.3181873,-36.7044625
The Shopping District,"56 Lyttleton Street, Castlemaine",144.2185044,-37.065246
Baramul Emu Oil,"4 Hitchcock Street, Castlemaine",144.237192,-37.0750017
COLBINABBIN,"34 C345, Colbinabbin",144.7961113,-36.5904493
Westfield Fountain Gate,"25/55 Overland Drive, Narre Warren",145.3042624,-38.0175702
DFO Moorabbin,"250 Centre Dandenong Road, Moorabbin Airport",145.0888717,-37.9710583
Linen House Outlet Heatherton,"60 Corporate Drive, Heatherton",145.0822467,-37.9479721
Parkmore Shopping Centre,"317 Cheltenham Road, Keysborough",145.1730838,-37.9925747
Cranbourne Park Shopping Centre,"125 High Street, Cranbourne",145.2821866,-38.1089868
Casey Central,"400 Narre Warren - Cranbourne Road, Narre Warren South",145.3001416,-38.0671339
Westfield Southland,"1239 Nepean Highway, Cheltenham",145.0510807,-37.9584584
Sweet Tomato,"371-373 Clayton Road, Clayton",145.1190045,-37.9268891
Bentons Square Shopping Centre,"210 Dunns Road, Mornington",145.0476235,-38.2453305
Somerville Plaza,"17 Eramosa Road West, Somerville",145.1720021,-38.2241344
The Local Village @ Carrum Downs,"The Local Village, 1095 Frankston - Dandenong Road, Carrum Downs",145.1824093,-38.0886517
Shopping on Clyde,"280 Berwick-Cranbourne Road, Clyde",145.3204021,-38.1186575
Chelsea Beach Arcade,"426 Nepean Highway, Chelsea",145.1163329,-38.0537244
Springhill Shopping Centre,"Thompsons Rd & Narre Warren Rd, Cranbourne",145.2919291,-38.08492079999999
The Avenue Village Shopping Centre,"Cnr William Thwaites Boulevard & Thompsons Road, Cranbourne North",145.3172867,-38.08586089999999
Eden Rise Village,"1 O'Shea Road, Berwick",145.3395588,-38.0617778
Hampton Park Shopping Centre,"55 Hallam Road, Hampton Park",145.2656652,-38.0333904
Sabrina Constructions,"51-53 Nissan Drive, Dandenong South",145.222,-38.02137
Enigmaclean,"2 Apollo Drive, Hallam",145.2683945,-38.014152
Dandenong Square,"McCrae Street, Walker Street, Dandenong",145.2170233,-37.986908
Springvale Plaza Shopping Centre,"Heatherton Road, Springvale South",145.1431527,-37.9618704
Arena Shopping Centre,"Cardinia Road, Officer",145.4351754,-38.06449319999999
adidas Factory Outlet Moorabbin DFO,"250 Centre Dandenong Road, Moorabbin Airport",145.0893002,-37.9713402
Kingston Central Plaza,"288 Centre Dandenong Road, Moorabbin Airport",145.0917373,-37.9710725
The Heritage Shopping Centre,"1 Livingstone Boulevard, Pakenham",145.4722501,-38.0850096
Didgeridoonas,"31 Commercial Drive, Pakenham",145.484824,-38.094012
Pakenham Central Marketplace,"50, 54 John Street, Pakenham",145.484052,-38.0783925
Springvale Shopping Centre,"46-58 Buckingham Avenue, Springvale",145.1506542,-37.95041800000001
Bayside Centre,"28 Beach Street, Frankston",145.1245331,-38.1411014
Karingal Hub,"330 Cranbourne Road, Frankston",145.1659108,-38.15395609999999
Waverley Gardens Shopping Centre,"271 Police Road, Mulgrave",145.1891438,-37.9361331
Springvale Homemaker,"917 Princes Highway, Springvale",145.1438889,-37.92749999999999
M-City Shopping Centre,"2107/2125 Princes Highway, Clayton",145.1403919,-37.920929
Wellington Village Shopping Centre,"1100 Wellington Road, Rowville",145.2526281,-37.9284574
Endeavour Hills Shopping Centre,"Matthew Flinders Avenue, Endeavour Hills",145.2596227,-37.97681360000001
Dendy Village Pharmacy,"752 Hampton Street, Brighton",145.006224,-37.919049
LUISA Warehouse - Direct from Italy,"14/993 North Road, Murrumbeena",145.0691489,-37.9071589
Mornington Village Shopping Centre,"241 Main Street, Mornington",145.040799,-38.2237368
Oakleigh Central,"39 Hanover Street, Oakleigh",145.0905394,-37.9006215
Lynbrook Village Shopping Centre,"75 Lynbrook Boulevard, Lynbrook",145.2570006,-38.0517949
Mornington Central,"78 Barkly Street, Mornington",145.0400544,-38.21900369999999
Somerville Central,"49 Eramosa Road West, Somerville",145.1698061,-38.2242914
Frankston Power Centre,"111 Cranbourne Road, Frankston",145.1377466,-38.1480022
The Gateway,"230 Cranbourne-Frankston Road, Langwarrin",145.1961036,-38.1506616
Harbour Plaza,"21 Thompson Road, Patterson Lakes",145.1426458,-38.0681754
HomeCo. Cranbourne,"398 South Gippsland Highway, Cranbourne",145.2790204,-38.08445899999999
Wonthaggi Plaza,"2 Biggs Drive, Wonthaggi",145.5875053,-38.6038571
Bass Coast Plaza,"5 Biggs Drive, Wonthaggi",145.5890158,-38.6033035
Carrum Downs Regional Shopping Centre,"100 Hall Road, Carrum Downs",145.1842899,-38.10217239999999
Rosebud Plaza,"McCombe Street, Rosebud",144.8913632,-38.3615692
Stud Park Shopping Centre,"Stud Rd & Fulham Rd, Rowville",145.2364279,-37.9201134
Lakeside Square,"9 Village Way, Pakenham",145.4377704,-38.07248609999999
Lakeview Shopping Centre,"Shop 5 102/114 Gladesville Boulevard, Patterson Lakes",145.1434979,-38.0676691
Pakenham Place Shopping Centre,"67/79 Main Street, Pakenham",145.4787156,-38.0781319
Balnarring Village Shopping Centre,"3050 Frankston - Flinders Road, Balnarring",145.1252707,-38.37302869999999
Bitternfields Shopping Centre,"2432 Frankston - Flinders Road, Bittern",145.1771829,-38.3363764
Linen House Outlet Hastings,"70 High Street, Hastings",145.190298,-38.30758
M2M Gifts,"The Mens Shed, 14 Mornington-Tyabb Road, Tyabb",145.1854718,-38.25933360000001
Mount Martha Village Centre,"Shop 6/34-38 Lochiel Avenue, Mount Martha",145.0138185,-38.2671622
Bonaccorde,"42 Lochiel Avenue, Mount Martha",145.0138152,-38.2670155
Westfield Doncaster,"619 Doncaster Road, Doncaster",145.125484,-37.78689209999999
Greensborough Plaza,"25 Main Street, Greensborough",145.1031319,-37.7026269
South Melbourne Market,"322-326 Coventry Street, South Melbourne",144.9559391,-37.8320111
DFO Moorabbin,"250 Centre Dandenong Road, Moorabbin Airport",145.0888717,-37.9710583
DFO Essendon,"100 Bulla Road, Essendon Fields",144.908863,-37.7331429
Victoria Gardens Shopping Centre,"620 Victoria Street, Richmond",145.0116083,-37.8132375
The Jam Factory,"500 Chapel Street, South Yarra",144.995328,-37.8427394
Westfield Fountain Gate,"25/55 Overland Drive, Narre Warren",145.3042624,-38.0175702
Westfield Knox,"425 Burwood Highway, Wantirna South",145.2408593,-37.8696283
Craigieburn Central,"340 Craigieburn Road, Craigieburn",144.9133132,-37.59263250000001
Linen House Outlet Heatherton,"60 Corporate Drive, Heatherton",145.0822467,-37.9479721
Radical RC Hobbies,"3/490 Mahoneys Road, Campbellfield",144.9641538,-37.6896534
Brand Smart,"288 Whitehorse Road, Nunawading",145.1719172,-37.8186884
Gladstone Park Shopping Centre,"8/34 Gladstone Park Drive, Gladstone Park",144.8846293,-37.68814289999999
The Como Centre,"Toorak Road, South Yarra",144.9958624,-37.8394149
Woodgrove Shopping Centre,"533-555 High Street, Melton West",144.5623604,-37.68583939999999
Burnside Hub,"15/25 Westwood Drive, Burnside",144.754415,-37.759917
Broadmeadows Central,"1099-1169 Pascoe Vale Road, Broadmeadows",144.9193346,-37.6804006
Westfield Plenty Valley,"415 McDonalds Road, Mill Park",145.071735,-37.6514214
Chadstone - The Fashion Capital,"1341 Dandenong Road, Malvern East",145.082586,-37.8878465
The Glen,"235 Springvale Road, Glen Waverley",145.164989,-37.87589699999999
Westfield Airport West,"29/35 Louis Street, Airport West",144.8865002,-37.71387559999999
Pran Central Shopping Centre,"325 Chapel Street, Prahran",144.9934684,-37.8472959
Melbourne's GPO,"350 Bourke Street, Melbourne",144.9632758,-37.8135391
Stockland Point Cook,"Level 1/2 Main Street, Point Cook",144.7353879,-37.8833691
Watergardens Shopping Centre,"399 Melton Highway, Taylors Lakes",144.7767572,-37.6989971
Sweet Tomato,"371-373 Clayton Road, Clayton",145.1190045,-37.9268891
The Pines Shopping Centre,"181 Reynolds Road, Doncaster East",145.1686409,-37.7619566
Royal Arcade,"335 Bourke Street, Melbourne",144.9640625,-37.8145388
Forest Hill Chase,"270 Canterbury Road, Forest Hill",145.1644833,-37.8355107
670 Chapel,"670 Chapel Street, South Yarra",144.996265,-37.83735300000001
Parkmore Shopping Centre,"317 Cheltenham Road, Keysborough",145.1730838,-37.9925747
The Block Arcade,"282 Collins Street, Melbourne",144.9646665,-37.815795
Westfield Southland,"1239 Nepean Highway, Cheltenham",145.0510807,-37.9584584
Northland Shopping Centre,"2-50 Murray Road, Preston",145.0299969,-37.7389461
Collins Place,"45 Collins Street, Melbourne",144.9733256,-37.8144674
Eastland Shopping Centre,"175 Maroondah Highway, Ringwood",145.2292803,-37.81265920000001
Box Hill Central,"1 Main Street, Box Hill",145.1220999,-37.81910179999999
Casey Central,"400 Narre Warren - Cranbourne Road, Narre Warren South",145.3001416,-38.0671339
Barkly Square,"90-106 Sydney Road, Brunswick",144.9620386,-37.7756812
Altona Village,Altona,144.8292597,-37.8694697
MAX&Co.,"619 Doncaster Road, Doncaster",145.1264043,-37.7841847
ANAESSIA & CARNIVEL BRIDAL FASHION HOUSE,"St Collins Lane Ground Floor, Shop RG07, 260 Collins Street, Melbourne",144.9650986,-37.8152725
Centrepoint,"283-297 Bourke Street, Melbourne",144.9652277,-37.81411209999999
Burwood One Shopping Centre,"172-210 Burwood Highway, Burwood East",145.1501371,-37.8537966
Costanzo Coburg,"382-384 Sydney Road, Coburg",144.966272,-37.744492
Springvale Plaza Shopping Centre,"Heatherton Road, Springvale South",145.1431527,-37.9618704
IGA Xpress Croydon South,"13 The Mall, Croydon South",145.270508,-37.811268
Essential Additions,"162 Dougharty Road, Heidelberg West",145.0440723,-37.73353669999999
W. H. Amad,"33 Charles Street, Coburg North",144.9573108,-37.7307421
Allway Matting by MatTek,"factory 2/7-9 Newcastle Road, Bayswater",145.283227,-37.842865
Coburg Hill Shopping Centre,"153-157 Elizabeth Street, Coburg North",144.9838032,-37.7298277
Summerhill Shopping Centre,"850 Plenty Road, Reservoir",145.0286934,-37.7246502
High Street Thomastown,"274 High Street, Thomastown",145.014613,-37.67718869999999
Pentridge,"1 Champ Street, Coburg",144.9691688,-37.7365064
Pacific Epping,"571-583 High Street, Epping",145.0183772,-37.6536169
Uni Hill Town Centre,"1 Janefield Drive, Bundoora",145.069474,-37.6822665
IGA X-press Broadmeadows,"10-12 Olsen Place, Broadmeadows",144.9268999,-37.68948409999999
adidas Factory Outlet Uni Hill DFO,"Shop T38/2 Janefield Drive, Bundoora",145.0708735,-37.6814339
DFO Uni Hill,"2 Janefield Drive, Bundoora",145.0707203,-37.68103109999999
Westfield Doncaster,"619 Doncaster Road, Doncaster",145.125484,-37.78689209999999
Greensborough Plaza,"25 Main Street, Greensborough",145.1031319,-37.7026269
Westfield Fountain Gate,"25/55 Overland Drive, Narre Warren",145.3042624,-38.0175702
South Melbourne Market,"322-326 Coventry Street, South Melbourne",144.9559391,-37.8320111
DFO Moorabbin,"250 Centre Dandenong Road, Moorabbin Airport",145.0888717,-37.9710583
DFO Essendon,"100 Bulla Road, Essendon Fields",144.908863,-37.7331429
Victoria Gardens Shopping Centre,"620 Victoria Street, Richmond",145.0116083,-37.8132375
The Jam Factory,"500 Chapel Street, South Yarra",144.995328,-37.8427394
Westfield Knox,"425 Burwood Highway, Wantirna South",145.2408593,-37.8696283
Linen House Outlet Heatherton,"60 Corporate Drive, Heatherton",145.0822467,-37.9479721
Craigieburn Central,"340 Craigieburn Road, Craigieburn",144.9133132,-37.59263250000001
Radical RC Hobbies,"3/490 Mahoneys Road, Campbellfield",144.9641538,-37.6896534
Brand Smart,"288 Whitehorse Road, Nunawading",145.1719172,-37.8186884
Gladstone Park Shopping Centre,"8/34 Gladstone Park Drive, Gladstone Park",144.8846293,-37.68814289999999
The Como Centre,"Toorak Road, South Yarra",144.9958624,-37.8394149
Woodgrove Shopping Centre,"533-555 High Street, Melton West",144.5623604,-37.68583939999999
Burnside Hub,"15/25 Westwood Drive, Burnside",144.754415,-37.759917
Broadmeadows Central,"1099-1169 Pascoe Vale Road, Broadmeadows",144.9193346,-37.6804006
Westfield Plenty Valley,"415 McDonalds Road, Mill Park",145.071735,-37.6514214
Chadstone - The Fashion Capital,"1341 Dandenong Road, Malvern East",145.082586,-37.8878465
The Glen,"235 Springvale Road, Glen Waverley",145.164989,-37.87589699999999
Westfield Airport West,"29/35 Louis Street, Airport West",144.8865002,-37.71387559999999
Pran Central Shopping Centre,"325 Chapel Street, Prahran",144.9934684,-37.8472959
Melbourne's GPO,"350 Bourke Street, Melbourne",144.9632758,-37.8135391
Stockland Point Cook,"Level 1/2 Main Street, Point Cook",144.7353879,-37.8833691
Watergardens Shopping Centre,"399 Melton Highway, Taylors Lakes",144.7767572,-37.6989971
Sweet Tomato,"371-373 Clayton Road, Clayton",145.1190045,-37.9268891
The Pines Shopping Centre,"181 Reynolds Road, Doncaster East",145.1686409,-37.7619566
Parkmore Shopping Centre,"317 Cheltenham Road, Keysborough",145.1730838,-37.9925747
Royal Arcade,"335 Bourke Street, Melbourne",144.9640625,-37.8145388
Forest Hill Chase,"270 Canterbury Road, Forest Hill",145.1644833,-37.8355107
670 Chapel,"670 Chapel Street, South Yarra",144.996265,-37.83735300000001
The Block Arcade,"282 Collins Street, Melbourne",144.9646665,-37.815795
Westfield Southland,"1239 Nepean Highway, Cheltenham",145.0510807,-37.9584584
Northland Shopping Centre,"2-50 Murray Road, Preston",145.0299969,-37.7389461
Collins Place,"45 Collins Street, Melbourne",144.9733256,-37.8144674
Casey Central,"400 Narre Warren - Cranbourne Road, Narre Warren South",145.3001416,-38.0671339
Cranbourne Park Shopping Centre,"125 High Street, Cranbourne",145.2821866,-38.1089868
Eastland Shopping Centre,"175 Maroondah Highway, Ringwood",145.2292803,-37.81265920000001
Box Hill Central,"1 Main Street, Box Hill",145.1220999,-37.81910179999999
Barkly Square,"90-106 Sydney Road, Brunswick",144.9620386,-37.7756812
Altona Village,Altona,144.8292597,-37.8694697
MAX&Co.,"619 Doncaster Road, Doncaster",145.1264043,-37.7841847
Springvale Plaza Shopping Centre,"Heatherton Road, Springvale South",145.1431527,-37.9618704
ANAESSIA & CARNIVEL BRIDAL FASHION HOUSE,"St Collins Lane Ground Floor, Shop RG07, 260 Collins Street, Melbourne",144.9650986,-37.8152725
Burwood One Shopping Centre,"172-210 Burwood Highway, Burwood East",145.1501371,-37.8537966
Centrepoint,"283-297 Bourke Street, Melbourne",144.9652277,-37.81411209999999
Costanzo Coburg,"382-384 Sydney Road, Coburg",144.966272,-37.744492
IGA Xpress Croydon South,"13 The Mall, Croydon South",145.270508,-37.811268
Essential Additions,"162 Dougharty Road, Heidelberg West",145.0440723,-37.73353669999999
W. H. Amad,"33 Charles Street, Coburg North",144.9573108,-37.7307421
Allway Matting by MatTek,"factory 2/7-9 Newcastle Road, Bayswater",145.283227,-37.842865
Crown Gifts,"Crown Towers, Lobby/8 Whiteman Street, Southbank",144.9580861,-37.82343669999999
adidas,"Tg17-19, 20 Convention Centre Place, South Wharf",144.9503296,-37.8250607
DFO South Wharf,"20 Convention Centre Place, South Wharf",144.9499309,-37.8246173
Presstine Dry Cleaning,"747 Collins Street, Docklands",144.9495974,-37.8206116
Bourke Place,"600 Bourke Street, Melbourne",144.955988,-37.8159365
Goldsbrough Village,"Goldsbrough Lane, Melbourne",144.957321,-37.81521709999999
260 Collins,"260 Collins Street, Melbourne",144.9649979,-37.8156628
Bourke Street Mall,"Bourke Street Mall, Melbourne",144.9644379,-37.81376849999999
Woodgrove Shopping Centre,"533-555 High Street, Melton West",144.5623604,-37.68583939999999
Burnside Hub,"15/25 Westwood Drive, Burnside",144.754415,-37.759917
Watergardens Shopping Centre,"399 Melton Highway, Taylors Lakes",144.7767572,-37.6989971
19th Hole Shopping Centre,"124 High Street, Woodend",144.5293027,-37.3558034
Country Grocers Ballan,"135 Inglis Street, Ballan",144.2249569,-37.6004486
Sunbury Square Shopping Centre,"2-28 Evans Street, Sunbury",144.7297911,-37.57783359999999
Central Square Ballarat Shopping Centre,"18 Armstrong Street South, Ballarat Central",143.8555244,-37.5626109
Taylors Hill Village,"127 Gourlay Road, Taylors Hill",144.7417119,-37.7114131
Ottoman3 Brow Bar Watergardens,"Watergardens Town Centre, 399 Melton Highway, Taylors Lakes",144.775881,-37.701809
Manor Lakes Central Shopping Centre,"455 Ballan Road, Manor Lakes",144.6143579,-37.8758175
Wyndham Vale Square Shopping Centre,"205 Greens Road, Wyndham Vale",144.6071871,-37.88778269999999
Tarneit West Village,"550 Tarneit Road, Tarneit",144.6664475,-37.8596584
Taylors Lakes Shopping Centre,"3 Melton Highway, Taylors Lakes",144.8001209,-37.7024931
Brimbank Shopping Centre,"Station Road, Deer Park",144.7755019,-37.7511412
Keilor Central,"80 Taylors Road, Keilor Downs",144.8069806,-37.72602759999999
Pacific Werribee,"Cnr Derrimut Road &, Heaths Road, Hoppers Crossing",144.6804581,-37.8769343
Stockland Wendouree Shopping Centre,"Norman Street &, Gillies Street North, Wendouree",143.8239425,-37.5343847
Manor Lakes Medical Centre,"Shop 5/8 Manor Lakes Boulevard, Wyndham Vale",144.6140171,-37.8763629
Country Kids Ballarat,"25 Bridge Mall, Ballarat Central",143.8619222,-37.5619271
Clifton Drive Shopping Centre,"Clifton Drive Shopping Centre, 3 Clifton Drive, Bacchus Marsh",144.4371634,-37.6657003
Maddingley Village,"4 McCormacks Road, Maddingley",144.4125306,-37.6888666
The Village Bacchus Marsh,"160-194 Main Street, Bacchus Marsh",144.4395054,-37.6751927
bacchus marsh town centre,"Unit 34/96 Gisborne Road, Bacchus Marsh",144.4383494,-37.67606
Gisborne Village Shopping Centre,"22 Brantome Street, Gisborne",144.5891064,-37.4863404
Mid-Town Lotto,"Gisborne Central, Shop 3 10/20 Aitken Street, Gisborne",144.590449,-37.4854305
Gisborne Central Shopping Centre,"10-20 Aitken Street, Gisborne",144.5906416,-37.4852321
Rug 'N Roll,"Shop R31 32/533 High Street, Melton West",144.5649846,-37.68536549999999
Coburns Central,"523/531 High Street, Melton West",144.5667755,-37.68561579999999
Central Walk Shopping Centre,"415 High Street, Melton",144.5783817,-37.6840508
Melton Station Square,"11-17 Station Road, Melton South",144.5744311,-37.7021479
WOODEND LPO,"20/130 High Street, Woodend",144.5290374,-37.3567428
Opalia Plaza,"201 Exford Road, Weir Views",144.5713698,-37.72198400000001
Dog Clothes Small Dogs,"5 Opal Street, Cobblebank",144.5866437,-37.71272740000001
The Place Cobblebank,"223 Bridge Road, Cobblebank",144.5947692,-37.71574409999999
Cobblebank Village,"211 Ferris Road, Cobblebank",144.6017295,-37.7134841
CS Square,"29-35 Lake Street, Caroline Springs",144.7435004,-37.7314943
Central Square,"2 Sadie Avenue, Thornhill Park",144.6288504,-37.7139198
The Terrace Shopping Centre,"112-126 Gap Road, Sunbury",144.7125903,-37.57818080000001
Linen House Outlet Kyneton,"12, Shop 4/14 Piper Street, Kyneton",144.4527215,-37.2444549
HomeCo Rosenthal,"Shop 2/90 Vineyard Road, Sunbury",144.7131938,-37.5941446
Sunbury Homemaker Centre,"85 Vineyard Road, Sunbury",144.7162349,-37.5885935
HomeCo. Woodlea Town,"2 Lim Way, Aintree",144.6703477,-37.72171329999999
Ballarat Wholefoods Collective,"Barkly Street, Ballarat East",143.8688818,-37.56420980000001
Bakery Hill Shopping Centre,"73 Victoria Street, Bakery Hill",143.86846,-37.5614121
Midvale Shopping Centre,"1178 Geelong Road, Mount Clear",143.8678959,-37.6027865
The Bridge,"62A Bridge Mall, Ballarat Central",143.8627363,-37.5628785
drift,"Bridge Mall, Ballarat Central",143.8625474,-37.56196540000001
Alfred Square,"1/61 Curtis Street, Ballarat Central",143.8618136,-37.5610685
Norwich Plaza,"15 Bridge Mall, Ballarat Central",143.8614342,-37.5622653
Northway Shopping Center,"Norman Street, Wendouree",143.8588365,-37.53698469999999
Eureka House,"11 Lydiard Street South, Ballarat Central",143.8578284,-37.5625757
City Centre Arcade,"315 Sturt Street, Ballarat Central",143.8553954,-37.5621349
The Block Arcade Ballarat,"1 Doveton Street South, Ballarat Central",143.8548657,-37.56295289999999
Watervale Shopping Centre,"2/14 Calder Park Drive, Sydenham",144.7513889,-37.7230556
City Vista Shopping Centre,"2 Osprey Drive, Fraser Rise",144.7260391,-37.7124296
RUG N ROLL,"Opposite Coles, Stockland Wendouree Shopping, Shop T74 Norman Street &, Gillies Street North, Wendouree",143.8246959,-37.5352276
Local Shops,"300 Gillies Street North, Wendouree",143.8246866,-37.5345042
Wyndham Village Shopping Centre,"380 Sayers Road, Tarneit",144.7044865,-37.8493732
Dangerfield Stockland Wendouree,"Shop 107 Stockland Shopping Center VIC Norman Street &, Gillies Street North, Wendouree",143.8225264,-37.5357094
Home Ballarat,"333 Gillies Street North, Wendouree",143.822405,-37.53449570000001
DFO Moorabbin,"250 Centre Dandenong Road, Moorabbin Airport",145.0888717,-37.9710583
Westfield Fountain Gate,"25/55 Overland Drive, Narre Warren",145.3042624,-38.0175702
Linen House Outlet Heatherton,"60 Corporate Drive, Heatherton",145.0822467,-37.9479721
Cranbourne Park Shopping Centre,"125 High Street, Cranbourne",145.2821866,-38.1089868
Parkmore Shopping Centre,"317 Cheltenham Road, Keysborough",145.1730838,-37.9925747
Casey Central,"400 Narre Warren - Cranbourne Road, Narre Warren South",145.3001416,-38.0671339
Westfield Southland,"1239 Nepean Highway, Cheltenham",145.0510807,-37.9584584
Bentons Square Shopping Centre,"210 Dunns Road, Mornington",145.0476235,-38.2453305
Somerville Plaza,"17 Eramosa Road West, Somerville",145.1720021,-38.2241344
The Local Village @ Carrum Downs,"The Local Village, 1095 Frankston - Dandenong Road, Carrum Downs",145.1824093,-38.0886517
Chelsea Beach Arcade,"426 Nepean Highway, Chelsea",145.1163329,-38.0537244
Shopping on Clyde,"280 Berwick-Cranbourne Road, Clyde",145.3204021,-38.1186575
Springhill Shopping Centre,"Thompsons Rd & Narre Warren Rd, Cranbourne",145.2919291,-38.08492079999999
The Avenue Village Shopping Centre,"Cnr William Thwaites Boulevard & Thompsons Road, Cranbourne North",145.3172867,-38.08586089999999
Bayside Centre,"28 Beach Street, Frankston",145.1245331,-38.1411014
Sabrina Constructions,"51-53 Nissan Drive, Dandenong South",145.222,-38.02137
adidas Factory Outlet Moorabbin DFO,"250 Centre Dandenong Road, Moorabbin Airport",145.0893002,-37.9713402
Hampton Park Shopping Centre,"55 Hallam Road, Hampton Park",145.2656652,-38.0333904
Kingston Central Plaza,"288 Centre Dandenong Road, Moorabbin Airport",145.0917373,-37.9710725
Karingal Hub,"330 Cranbourne Road, Frankston",145.1659108,-38.15395609999999
Springvale Plaza Shopping Centre,"Heatherton Road, Springvale South",145.1431527,-37.9618704
Eden Rise Village,"1 O'Shea Road, Berwick",145.3395588,-38.0617778
Enigmaclean,"2 Apollo Drive, Hallam",145.2683945,-38.014152
Dandenong Square,"McCrae Street, Walker Street, Dandenong",145.2170233,-37.986908
Mornington Village Shopping Centre,"241 Main Street, Mornington",145.040799,-38.2237368
Springvale Shopping Centre,"46-58 Buckingham Avenue, Springvale",145.1506542,-37.95041800000001
Mornington Central,"78 Barkly Street, Mornington",145.0400544,-38.21900369999999
Somerville Central,"49 Eramosa Road West, Somerville",145.1698061,-38.2242914
Frankston Power Centre,"111 Cranbourne Road, Frankston",145.1377466,-38.1480022
The Gateway,"230 Cranbourne-Frankston Road, Langwarrin",145.1961036,-38.1506616
Dendy Village Pharmacy,"752 Hampton Street, Brighton",145.006224,-37.919049
Harbour Plaza,"21 Thompson Road, Patterson Lakes",145.1426458,-38.0681754
Rosebud Plaza,"McCombe Street, Rosebud",144.8913632,-38.3615692
Carrum Downs Regional Shopping Centre,"100 Hall Road, Carrum Downs",145.1842899,-38.10217239999999
Lynbrook Village Shopping Centre,"75 Lynbrook Boulevard, Lynbrook",145.2570006,-38.0517949
HomeCo. Cranbourne,"398 South Gippsland Highway, Cranbourne",145.2790204,-38.08445899999999
Balnarring Village Shopping Centre,"3050 Frankston - Flinders Road, Balnarring",145.1252707,-38.37302869999999
Lakeview Shopping Centre,"Shop 5 102/114 Gladesville Boulevard, Patterson Lakes",145.1434979,-38.0676691
Dromana Hub Shopping Centre,"217-251 Point Nepean Road, Dromana",144.9649808,-38.3337468
McCrae Plaza,"739 Point Nepean Road, McCrae",144.9219631,-38.3514457
Rosebud Beach Shopping Centre,"967-991 Point Nepean Road, Rosebud",144.9075609,-38.3560834
Rosebud Central Shopping Centre,"Rosebud Central, 7B Ninth Ave &, Wannaeue Place, Rosebud",144.9049647,-38.3571429
Mount Martha Village Centre,"Shop 6/34-38 Lochiel Avenue, Mount Martha",145.0138185,-38.2671622
Bonaccorde,"42 Lochiel Avenue, Mount Martha",145.0138152,-38.2670155
HomeCo Mornington,"75 Mornington-Tyabb Road, Mornington",145.051024,-38.233414
Main Street Shops and Offices,"211 Main Street, Mornington",145.040251,-38.22271910000001
Vale Arcade,"234 Main Street, Mornington",145.041006,-38.2227241
Barkly Square,"53-55 Barkly Street, Mornington",145.038616,-38.221463
Main Street Mornington,"Main Street, Mornington",145.0395814,-38.2208631
Empire Street Mall,"Empire Street, Mornington",145.0379504,-38.21940009999999
Robertson Drive Shops,"39/47 Robertson Drive, Mornington",145.0556302,-38.2253428
The Mall,"Unit 16/90 Main Street, Mornington",145.0386,-38.2190474
Beleura Hill Shops,"85-87 Beleura Hill Road, Mornington",145.052648,-38.2205327
HomeCo. Peninsula,"1128/1132 Nepean Highway, Mornington",145.0615523,-38.2202106
Bitternfields Shopping Centre,"2432 Frankston - Flinders Road, Bittern",145.1771829,-38.3363764
Coppin Arcade,"69/75 Ocean Beach Road, Sorrento",144.7396551,-38.33962289999999
Sorrento Village,"106 Ocean Beach Road, Sorrento",144.7382215,-38.33928119999999
Linen House Outlet Hastings,"70 High Street, Hastings",145.190298,-38.30758
M2M Gifts,"The Mens Shed, 14 Mornington-Tyabb Road, Tyabb",145.1854718,-38.25933360000001
Ritchies Village,"89 Mount Eliza Way, Mount Eliza",145.0894863,-38.1849561
Shepparton Home,"280/290 Benalla Road, Shepparton",145.4304765,-36.38889199999999
Fairleys IGA Shepparton,"177-193 Numurkah Road, Shepparton",145.4031009,-36.3535277
Riverside Plaza,"8025 Goulburn Valley Highway, Kialla",145.3911138,-36.4083712
Shepparton Marketplace,"110 Benalla Road, Shepparton",145.424029,-36.38768700000001
Southside on Parade,"575 Wyndham Street, Shepparton",145.3967116,-36.3956127
Shepparton Market Plaza,Shepparton,145.4253773,-36.3879499
CentrepointPlaza,"19 Vaughan Street, Shepparton",145.3998843,-36.38314199999999
Finborough Court Shopping Centre,"1/69 McLennan Street, Mooroopna",145.3601241,-36.39479300000001
Jim And Lencia,Tatong,146.0789113,-36.6707645
Centrefair,"198A Maude Street, Shepparton",145.4004291,-36.3794815
Westfield Doncaster,"619 Doncaster Road, Doncaster",145.125484,-37.78689209999999
Greensborough Plaza,"25 Main Street, Greensborough",145.1031319,-37.7026269
Westfield Fountain Gate,"25/55 Overland Drive, Narre Warren",145.3042624,-38.0175702
South Melbourne Market,"322-326 Coventry Street, South Melbourne",144.9559391,-37.8320111
DFO Moorabbin,"250 Centre Dandenong Road, Moorabbin Airport",145.0888717,-37.9710583
Victoria Gardens Shopping Centre,"620 Victoria Street, Richmond",145.0116083,-37.8132375
The Jam Factory,"500 Chapel Street, South Yarra",144.995328,-37.8427394
Westfield Knox,"425 Burwood Highway, Wantirna South",145.2408593,-37.8696283
DFO Essendon,"100 Bulla Road, Essendon Fields",144.908863,-37.7331429
Linen House Outlet Heatherton,"60 Corporate Drive, Heatherton",145.0822467,-37.9479721
Radical RC Hobbies,"3/490 Mahoneys Road, Campbellfield",144.9641538,-37.6896534
Craigieburn Central,"340 Craigieburn Road, Craigieburn",144.9133132,-37.59263250000001
Brand Smart,"288 Whitehorse Road, Nunawading",145.1719172,-37.8186884
The Como Centre,"Toorak Road, South Yarra",144.9958624,-37.8394149
Westfield Plenty Valley,"415 McDonalds Road, Mill Park",145.071735,-37.6514214
The Glen,"235 Springvale Road, Glen Waverley",145.164989,-37.87589699999999
Chadstone - The Fashion Capital,"1341 Dandenong Road, Malvern East",145.082586,-37.8878465
Broadmeadows Central,"1099-1169 Pascoe Vale Road, Broadmeadows",144.9193346,-37.6804006
Gladstone Park Shopping Centre,"8/34 Gladstone Park Drive, Gladstone Park",144.8846293,-37.68814289999999
Pran Central Shopping Centre,"325 Chapel Street, Prahran",144.9934684,-37.8472959
Melbourne's GPO,"350 Bourke Street, Melbourne",144.9632758,-37.8135391
Sweet Tomato,"371-373 Clayton Road, Clayton",145.1190045,-37.9268891
The Pines Shopping Centre,"181 Reynolds Road, Doncaster East",145.1686409,-37.7619566
Parkmore Shopping Centre,"317 Cheltenham Road, Keysborough",145.1730838,-37.9925747
Forest Hill Chase,"270 Canterbury Road, Forest Hill",145.1644833,-37.8355107
Royal Arcade,"335 Bourke Street, Melbourne",144.9640625,-37.8145388
Westfield Airport West,"29/35 Louis Street, Airport West",144.8865002,-37.71387559999999
670 Chapel,"670 Chapel Street, South Yarra",144.996265,-37.83735300000001
The Block Arcade,"282 Collins Street, Melbourne",144.9646665,-37.815795
Westfield Southland,"1239 Nepean Highway, Cheltenham",145.0510807,-37.9584584
Northland Shopping Centre,"2-50 Murray Road, Preston",145.0299969,-37.7389461
Casey Central,"400 Narre Warren - Cranbourne Road, Narre Warren South",145.3001416,-38.0671339
Collins Place,"45 Collins Street, Melbourne",144.9733256,-37.8144674
Cranbourne Park Shopping Centre,"125 High Street, Cranbourne",145.2821866,-38.1089868
Eastland Shopping Centre,"175 Maroondah Highway, Ringwood",145.2292803,-37.81265920000001
Box Hill Central,"1 Main Street, Box Hill",145.1220999,-37.81910179999999
MAX&Co.,"619 Doncaster Road, Doncaster",145.1264043,-37.7841847
Burwood One Shopping Centre,"172-210 Burwood Highway, Burwood East",145.1501371,-37.8537966
Springvale Plaza Shopping Centre,"Heatherton Road, Springvale South",145.1431527,-37.9618704
IGA Xpress Croydon South,"13 The Mall, Croydon South",145.270508,-37.811268
Barkly Square,"90-106 Sydney Road, Brunswick",144.9620386,-37.7756812
Essential Additions,"162 Dougharty Road, Heidelberg West",145.0440723,-37.73353669999999
Costanzo Coburg,"382-384 Sydney Road, Coburg",144.966272,-37.744492
Allway Matting by MatTek,"factory 2/7-9 Newcastle Road, Bayswater",145.283227,-37.842865
ANAESSIA & CARNIVEL BRIDAL FASHION HOUSE,"St Collins Lane Ground Floor, Shop RG07, 260 Collins Street, Melbourne",144.9650986,-37.8152725
Centrepoint,"283-297 Bourke Street, Melbourne",144.9652277,-37.81411209999999
Lilydale Marketplace,"33 Hutchinson Street, Lilydale",145.3487151,-37.75978689999999
Chirnside Homemaker Centre,"282 Maroondah Highway, Chirnside Park",145.3059558,-37.7661328
Knox O-Zone,"509 Burwood Highway, Wantirna South",145.2434839,-37.8691092
Under Cuts,"Shop 4/1202 Burwood Highway, Upper Ferntree Gully",145.30863,-37.8940931
St Helena Marketplace,"214 Aqueduct Road, Saint Helena",145.135854,-37.685035
Century City Walk,"285-287 Springvale Road, Glen Waverley",145.1646621,-37.8813612
Wellington Village Shopping Centre,"1100 Wellington Road, Rowville",145.2526281,-37.9284574
Heidelberg Central,"Burgundy Street, Heidelberg",145.0671257,-37.7563603
adidas Factory Outlet Uni Hill DFO,"Shop T38/2 Janefield Drive, Bundoora",145.0708735,-37.6814339
DFO Uni Hill,"2 Janefield Drive, Bundoora",145.0707203,-37.68103109999999
Uni Hill Town Centre,"1 Janefield Drive, Bundoora",145.069474,-37.6822665
Central South Morang,"338-342 McDonalds Road, South Morang",145.0749078,-37.6485822
Waverley Gardens Shopping Centre,"271 Police Road, Mulgrave",145.1891438,-37.9361331
Camberwell Junction Shopping Precinct,"793 Burke Road, Camberwell",145.0566936,-37.8291302
Mansfield shopping centre,"High Street, Mansfield",146.0887898,-37.0519614
Marks SUPA IGA Mansfield,"47 High Street, Mansfield",146.0901898,-37.0517896
Jim And Lencia,Tatong,146.0789113,-36.6707645
Fountain Plaza,"Fountain Plaza, 196 Hare Street, Echuca",144.7503033,-36.1274706
Pakenham Plaza,"210-212 Pakenham Street, Patho",144.7511272,-36.1280491
Linen House Outlet Echuca,"136 Hare Street, Echuca",144.7501108,-36.1292249
Iddles Lane Emporium,"11-13 Gillies Street, Rochester",144.7005867,-36.3613759
IGA Trafalgar,"5 McCrorey Street, Trafalgar",146.1533322,-38.20854779999999
Mid Valley Shopping Centre,"Corner Centre Valley Road &, Princes Drive, Morwell",146.4297358,-38.23736760000001
Traralgon Centre Plaza,"166-188 Franklin Street, Traralgon",146.539444,-38.194513
Church Street Arcade,"Shop 6 29/31 Church Street, Traralgon",146.534921,-38.19644
Moe Plaza,"30 Moore Street, Moe",146.2604482,-38.1753247
Hazelwood shopping Centre,"8 Georgina Place, Churchill",146.4210083,-38.3120044
West Place Shopping Centre,"10 West Place, Churchill",146.4208325,-38.3134976
Horsham Gateway Centre,"120 Wilson Street, Horsham",142.1944315,-36.7164573
Horsham Plaza,"36 Darlot Street, Horsham",142.1959918,-36.7155653
Hairevent,"Horsham Plaza, Shop 10, 36 Darlot Street, Horsham",142.1956661,-36.7154173
Westfield Doncaster,"619 Doncaster Road, Doncaster",145.125484,-37.78689209999999
Greensborough Plaza,"25 Main Street, Greensborough",145.1031319,-37.7026269
South Melbourne Market,"322-326 Coventry Street, South Melbourne",144.9559391,-37.8320111
DFO Essendon,"100 Bulla Road, Essendon Fields",144.908863,-37.7331429
Victoria Gardens Shopping Centre,"620 Victoria Street, Richmond",145.0116083,-37.8132375
The Jam Factory,"500 Chapel Street, South Yarra",144.995328,-37.8427394
Westfield Knox,"425 Burwood Highway, Wantirna South",145.2408593,-37.8696283
Craigieburn Central,"340 Craigieburn Road, Craigieburn",144.9133132,-37.59263250000001
Radical RC Hobbies,"3/490 Mahoneys Road, Campbellfield",144.9641538,-37.6896534
DFO Moorabbin,"250 Centre Dandenong Road, Moorabbin Airport",145.0888717,-37.9710583
Brand Smart,"288 Whitehorse Road, Nunawading",145.1719172,-37.8186884
Gladstone Park Shopping Centre,"8/34 Gladstone Park Drive, Gladstone Park",144.8846293,-37.68814289999999
Westfield Plenty Valley,"415 McDonalds Road, Mill Park",145.071735,-37.6514214
Linen House Outlet Heatherton,"60 Corporate Drive, Heatherton",145.0822467,-37.9479721
Broadmeadows Central,"1099-1169 Pascoe Vale Road, Broadmeadows",144.9193346,-37.6804006
The Como Centre,"Toorak Road, South Yarra",144.9958624,-37.8394149
The Glen,"235 Springvale Road, Glen Waverley",145.164989,-37.87589699999999
Westfield Fountain Gate,"25/55 Overland Drive, Narre Warren",145.3042624,-38.0175702
Chadstone - The Fashion Capital,"1341 Dandenong Road, Malvern East",145.082586,-37.8878465
Westfield Airport West,"29/35 Louis Street, Airport West",144.8865002,-37.71387559999999
The Pines Shopping Centre,"181 Reynolds Road, Doncaster East",145.1686409,-37.7619566
Melbourne's GPO,"350 Bourke Street, Melbourne",144.9632758,-37.8135391
Pran Central Shopping Centre,"325 Chapel Street, Prahran",144.9934684,-37.8472959
Forest Hill Chase,"270 Canterbury Road, Forest Hill",145.1644833,-37.8355107
Royal Arcade,"335 Bourke Street, Melbourne",144.9640625,-37.8145388
670 Chapel,"670 Chapel Street, South Yarra",144.996265,-37.83735300000001
Sweet Tomato,"371-373 Clayton Road, Clayton",145.1190045,-37.9268891
The Block Arcade,"282 Collins Street, Melbourne",144.9646665,-37.815795
Northland Shopping Centre,"2-50 Murray Road, Preston",145.0299969,-37.7389461
Watergardens Shopping Centre,"399 Melton Highway, Taylors Lakes",144.7767572,-37.6989971
Collins Place,"45 Collins Street, Melbourne",144.9733256,-37.8144674
Parkmore Shopping Centre,"317 Cheltenham Road, Keysborough",145.1730838,-37.9925747
Eastland Shopping Centre,"175 Maroondah Highway, Ringwood",145.2292803,-37.81265920000001
Westfield Southland,"1239 Nepean Highway, Cheltenham",145.0510807,-37.9584584
Burnside Hub,"15/25 Westwood Drive, Burnside",144.754415,-37.759917
Box Hill Central,"1 Main Street, Box Hill",145.1220999,-37.81910179999999
MAX&Co.,"619 Doncaster Road, Doncaster",145.1264043,-37.7841847
Burwood One Shopping Centre,"172-210 Burwood Highway, Burwood East",145.1501371,-37.8537966
IGA Xpress Croydon South,"13 The Mall, Croydon South",145.270508,-37.811268
Barkly Square,"90-106 Sydney Road, Brunswick",144.9620386,-37.7756812
Costanzo Coburg,"382-384 Sydney Road, Coburg",144.966272,-37.744492
Essential Additions,"162 Dougharty Road, Heidelberg West",145.0440723,-37.73353669999999
Allway Matting by MatTek,"factory 2/7-9 Newcastle Road, Bayswater",145.283227,-37.842865
W. H. Amad,"33 Charles Street, Coburg North",144.9573108,-37.7307421
St Helena Marketplace,"214 Aqueduct Road, Saint Helena",145.135854,-37.685035
Central South Morang,"338-342 McDonalds Road, South Morang",145.0749078,-37.6485822
DFO Uni Hill,"2 Janefield Drive, Bundoora",145.0707203,-37.68103109999999
adidas Factory Outlet Uni Hill DFO,"Shop T38/2 Janefield Drive, Bundoora",145.0708735,-37.6814339
Uni Hill Town Centre,"1 Janefield Drive, Bundoora",145.069474,-37.6822665
Chirnside Homemaker Centre,"282 Maroondah Highway, Chirnside Park",145.3059558,-37.7661328
Lilydale Marketplace,"33 Hutchinson Street, Lilydale",145.3487151,-37.75978689999999
Epping North Shopping Centre,"2 Lyndarum Drive, Epping North",145.027106,-37.628103
Pacific Epping,"571-583 High Street, Epping",145.0183772,-37.6536169
High Street Thomastown,"274 High Street, Thomastown",145.014613,-37.67718869999999
Heidelberg Central,"Burgundy Street, Heidelberg",145.0671257,-37.7563603
Summerhill Shopping Centre,"850 Plenty Road, Reservoir",145.0286934,-37.7246502
Centrepoint,"283-297 Bourke Street, Melbourne",144.9652277,-37.81411209999999
ANAESSIA & CARNIVEL BRIDAL FASHION HOUSE,"St Collins Lane Ground Floor, Shop RG07, 260 Collins Street, Melbourne",144.9650986,-37.8152725
Coburg Hill Shopping Centre,"153-157 Elizabeth Street, Coburg North",144.9838032,-37.7298277
Highlands Shopping Centre,"300-332 Grand Boulevard, Craigieburn",144.9201647,-37.574919
Gateway Plaza,"154 Raglan Parade, Warrnambool",142.5205556,-38.3808333
Northpoint,"Hopkins Highway, Warrnambool",142.4948035,-38.3685059
Warrnambool Shopping Centre,"154 Koroit Street, Warrnambool",142.482525,-38.3830073
Bayside City Plaza,"24 Fairy Street, Warrnambool",142.4782022,-38.3840033
East Warrnambool Shopping Centre,"1/9 Gateway Road, Warrnambool",142.5185895,-38.382387
Your Regional Butcher - Warrnambool,"Shop 35, Gateway Plaza Shopping Centre, 154 Raglan Parade, Warrnambool",142.5203641,-38.38174
Johnstone Court,"56 High Street, Terang",142.9173984,-38.24092329999999
Marks SUPA IGA Mansfield,"47 High Street, Mansfield",146.0901898,-37.0517896
Mansfield shopping centre,"High Street, Mansfield",146.0887898,-37.0519614
Bass Coast Plaza,"5 Biggs Drive, Wonthaggi",145.5890158,-38.6033035
Wonthaggi Plaza,"2 Biggs Drive, Wonthaggi",145.5875053,-38.6038571
Fish creek Hub,Fish Creek,146.0818652,-38.6942192
Fennells Flooring,"1 Lardner Place, Leongatha",145.9451684,-38.4776322
Korumburra Makers & Collectors,"55 Commercial Street, Korumburra",145.823914,-38.4324616
The Crystal Cocoon,"93 Commercial Street, Korumburra",145.8230172,-38.43158880000001
Into The Rabbit Hole,"95 Commercial Street, Korumburra",145.8230172,-38.43158880000001
Murray Street Bazaar,"1 Murray Street, Wonthaggi",145.5930667,-38.604944
Plaza Arcade,"Graham Street, Wonthaggi",145.5898668,-38.6060048
Loch Village,"7 Victoria Road, Loch",145.7047475,-38.3686123
19th Hole Shopping Centre,"124 High Street, Woodend",144.5293027,-37.3558034
Strath Village,"134 Condon Street, Bendigo",144.3046886,-36.7746043
Bendigo Marketplace,"116-120 Mitchell Street, Bendigo",144.2801867,-36.7658329
Linen House Outlet Kyneton,"12, Shop 4/14 Piper Street, Kyneton",144.4527215,-37.2444549
Baramul Emu Oil,"4 Hitchcock Street, Castlemaine",144.237192,-37.0750017
Kilmore Village,"109 Northern Highway, Kilmore",144.9484608,-37.2862046
IGA Broadford,"65 High Street, Broadford",145.0460074,-37.2046455
The Shopping District,"56 Lyttleton Street, Castlemaine",144.2185044,-37.065246
Kennington Village,"150 Condon Street, Kennington",144.306372,-36.7750889
WOODEND LPO,"20/130 High Street, Woodend",144.5290374,-37.3567428
Malama Lounge,"Shop 1/11 Lowndes Street, Kennington",144.298255,-36.76485799999999
Chinese Traditional Massage,"27/267 High Street, Kangaroo Flat",144.2424459,-36.8104546
Lansell Square,"267 High Street, Kangaroo Flat",144.2424245,-36.8104086
Eco Laundry Room (Bendigo),"Lansell Square, Shop 159/267 High Street, Kangaroo Flat",144.2418881,-36.8104494
Backhaus Arcade,"314 Lyttleton Terrace, Bendigo",144.2815196,-36.76128750000001
Abbott Arcade,"7 Queen Street, Bendigo",144.2815312,-36.7607191
Epsom Village,"22 Howard Street, Epsom",144.3181873,-36.7044625
Bendigo Showgrounds Market,"Holmes Road, North Bendigo",144.2706344,-36.7389005
COLBINABBIN,"34 C345, Colbinabbin",144.7961113,-36.5904493
